"ID","lat","lon","Agency","Bureau","Installation Name","City","State","Zip code","Real Property Type","Real Property Use","RPUID","Likely Disposition Outcome","Map Label"
3,"34.14009944","-87.36024556","Agriculture","Forest Service","NATIONAL FORESTS IN AL","DOUBLE SPRINGS","Alabama",35553,"Building","School","F1439.005781","Demolition","Excess Asset"
4,"34.14009944","-87.36024556","Agriculture","Forest Service","NATIONAL FORESTS IN AL","DOUBLE SPRINGS","Alabama",35553,"Building","All Other","F1440.005781","Demolition","Excess Asset"
5,"32.95666722","-87.46005611","Agriculture","Forest Service","NATIONAL FORESTS IN AL","MOUNDVILLE","Alabama",35474,"Building","All Other","F1522.005781","Demolition","Excess Asset"
6,"32.95666722","-87.46005611","Agriculture","Forest Service","NATIONAL FORESTS IN AL","MOUNDVILLE","Alabama",35474,"Building","Communications Systems","F1582.005781","Demolition","Excess Asset"
7,"34.14009944","-87.36024556","Agriculture","Forest Service","NATIONAL FORESTS IN AL","DOUBLE SPRINGS","Alabama",35553,"Building","Communications Systems","F2171.005781","Demolition","Excess Asset"
8,"34.10194639","-87.32076973","Agriculture","Forest Service","NATIONAL FORESTS IN AL","DOUBLE SPRINGS","Alabama",35553,"Building","Industrial","F588010402","Demolition","Excess Asset"
57,"56.17281667","-132.4573167","Agriculture","Forest Service","TONGASS NATIONAL FOREST","WRANGELL","Alaska",99929,"Building","Service","F1127.008031","Demolition","Excess Asset"
58,"60.804","-148.93","Agriculture","Forest Service","CHUGACH NATIONAL FOREST","PORTAGE","Alaska",99577,"Building","All Other","F1238.008121","Demolition","Excess Asset"
59,"60.923","-149.508","Agriculture","Forest Service","CHUGACH NATIONAL FOREST","HOPE","Alaska",99631,"Building","Other Institutional Uses","F1755.008121","Demolition","Excess Asset"
60,"60.493","-149.757","Agriculture","Forest Service","CHUGACH NATIONAL FOREST","COOPER LANDING","Alaska",99572,"Building","Service","F2045.008121","Demolition","Excess Asset"
94,"60.409","-149.365","Agriculture","Forest Service","CHUGACH NATIONAL FOREST","Moose Pass","Alaska",99631,"Building","Service","F2049.008121","Demolition","Excess Asset"
111,"57.50011389","-134.5779639","Agriculture","Forest Service","TONGASS NATIONAL FOREST","Angoon","Alaska",99820,"Building","All Other","F2004.008061","Demolition","Excess Asset"
118,"56.9694","-132.8211","Agriculture","Forest Service","TONGASS NATIONAL FOREST","Petersburg","Alaska",99833,"Building","All Other","F1072.008031","Demolition","Excess Asset"
119,"56.7125","-132.9539","Agriculture","Forest Service","TONGASS NATIONAL FOREST","Petersburg","Alaska",99833,"Building","Service","F1128.008031","Demolition","Excess Asset"
124,"57.52301667","-135.1889667","Agriculture","Forest Service","TONGASS NATIONAL FOREST","Sitka","Alaska",99835,"Building","All Other","F2011.008061","Demolition","Excess Asset"
318,"35.1404","-112.0566","Agriculture","Forest Service","KAIBAB NATIONAL FOREST","PARKS","Arizona",86046,"Building","Service","F1058.002381","Demolition","Excess Asset"
319,"34.6941","-112.1277","Agriculture","Forest Service","PRESCOTT NATIONAL FOREST","JEROME","Arizona",86326,"Building","Service","F1099.002481","Demolition","Excess Asset"
320,"36.4528","-112.2381","Agriculture","Forest Service","KAIBAB NATIONAL FOREST","JACOB LAKE","Arizona",86022,"Building","All Other","F1209.002381","Demolition","Excess Asset"
321,"34.7543","-112.4529","Agriculture","Forest Service","PRESCOTT NATIONAL FOREST","CHINO VALLEY","Arizona",86323,"Building","All Other","F1259.002481","Demolition","Excess Asset"
322,"35.9886","-112.1212","Agriculture","Forest Service","KAIBAB NATIONAL FOREST","TUSAYAN","Arizona",86046,"Building","Service","F1275.002381","Demolition","Excess Asset"
323,"35.988","-112.1196","Agriculture","Forest Service","KAIBAB NATIONAL FOREST","TUSAYAN","Arizona",86046,"Building","All Other","F1281.002381","Demolition","Excess Asset"
324,"35.9898","-112.1221","Agriculture","Forest Service","KAIBAB NATIONAL FOREST","TUSAYAN","Arizona",86046,"Building","All Other","F1285.002381","Demolition","Excess Asset"
325,"32.44177212","-110.7885055","Agriculture","Forest Service","CORONADO NF","CATALINA","Arizona",85619,"Building","All Other","F1559.002231","Demolition","Excess Asset"
327,"33.54058851","-109.31762337","Agriculture","Forest Service","APACHE-SITGREAVES NF","Clifton","Arizona",85533,"Building","Service","F2200.001931","Demolition","Excess Asset"
329,"34.6718","-111.7141","Agriculture","Forest Service","COCONINO NATIONAL FOREST","LAKE MONTEZUMA","Arizona",86336,"Building","All Other","F2183.002161","Demolition","Excess Asset"
331,"34.7434","-111.4104","Agriculture","Forest Service","COCONINO NATIONAL FOREST","HAPPY JACK","Arizona",86336,"Building","All Other","F2223.002161","Demolition","Excess Asset"
332,"34.8866","-111.428","Agriculture","Forest Service","COCONINO NATIONAL FOREST","MORMON LAKE","Arizona",86038,"Building","Service","F2268.002161","Demolition","Excess Asset"
333,"34.7434","-111.4104","Agriculture","Forest Service","COCONINO NATIONAL FOREST","HAPPY JACK","Arizona",86336,"Building","All Other","F2325.002161","Demolition","Excess Asset"
334,"34.67184752","-111.71412696","Agriculture","Forest Service","COCONINO NATIONAL FOREST","LAKE MONTEZUMA","Arizona",86336,"Building","All Other","F2460.002161","Demolition","Excess Asset"
335,"35.28313","-111.72412","Agriculture","Forest Service","COCONINO NATIONAL FOREST","FLAGSTAFF","Arizona",86001,"Building","All Other","F2591.002161","Demolition","Excess Asset"
341,"34.54574961","-110.91584257","Agriculture","Forest Service","APACHE-SITGREAVES NF","Sedona","Arizona",86336,"Building","All Other","F1162.001931","Demolition","Excess Asset"
343,"31.76419","-110.84704","Agriculture","Forest Service","CORONADO NATIONAL FOREST","CONTINENTAL","Arizona",85614,"Building","Service","F64010519","Demolition","Excess Asset"
428,"33.96336111","-111.87713889","Agriculture","Forest Service","TONTO NATIONAL FOREST","Scottsdale","Arizona",85262,"Building","All Other","F1002.002601","Demolition","New Excess Asset Identified in 2010"
429,"33.2639564","-109.36690044","Agriculture","Forest Service","APACHE-SITGREAVES NF","Clifton","Arizona",85533,"Building","Service","F2202.001931","Demolition","New Excess Asset Identified in 2010"
430,"34.14961111","-111.80208333","Agriculture","Forest Service","TONTO NATIONAL FOREST","BLACK CANYON CITY","Arizona",86333,"Building","Industrial","F1565.002601","Demolition","New Excess Asset Identified in 2010"
431,"34.21383056","-111.97776945","Agriculture","Forest Service","TONTO NATIONAL FOREST","BUMBLE BEE","Arizona",86333,"Building","All Other","F1567.002601","Demolition","New Excess Asset Identified in 2010"
432,"34.21383056","-111.97776945","Agriculture","Forest Service","TONTO NATIONAL FOREST","BUMBLE BEE","Arizona",86333,"Building","Service","F1568.002601","Demolition","New Excess Asset Identified in 2010"
433,"34.14916666","-111.80211111","Agriculture","Forest Service","TONTO NATIONAL FOREST","BLACK CANYON CITY","Arizona",86333,"Building","Service","F2205.002601","Demolition","New Excess Asset Identified in 2010"
502,"36.02922223","-92.20555833","Agriculture","Forest Service","OZARK-ST.FRANCIS NATIONAL FORESTS","Mountain View","Arkansas",72533,"Building","All Other","F1287.006571","Demolition","Excess Asset"
503,"36.02676667","-92.2053","Agriculture","Forest Service","OZARK-ST.FRANCIS NATIONAL FORESTS","Mountain View","Arkansas",72533,"Building","All Other","F1294.006571","Demolition","Excess Asset"
507,"35.86391667","-92.10333333","Agriculture","Forest Service","OZARK-ST.FRANCIS NATIONAL FORESTS","Mountain View","Arkansas",72560,"Building","Industrial","F1015.006571","Demolition","Excess Asset"
508,"35.98388889","-92.10669444","Agriculture","Forest Service","OZARK-ST.FRANCIS NATIONAL FORESTS","Mountain View","Arkansas",72560,"Building","Industrial","F1282.006571","Demolition","Excess Asset"
509,"35.98333333","-92.102","Agriculture","Forest Service","OZARK-ST.FRANCIS NATIONAL FORESTS","Mountain View","Arkansas",72560,"Building","All Other","F1283.006571","Demolition","Excess Asset"
529,"34.62399","-93.80432","Agriculture","Forest Service","OUACHITA NATIONAL FOREST","ODEN","Arkansas",71961,"Building","All Other","F1159.006441","Demolition","Excess Asset"
530,"35.39982777","-93.10955","Agriculture","Forest Service","OZARK-ST.FRANCIS NATIONAL FORESTS","DOVER","Arkansas",72837,"Building","All Other","F1235.006571","Demolition","Excess Asset"
531,"34.70459","-93.06293","Agriculture","Forest Service","OUACHITA NATIONAL FOREST","JESSIEVILLE","Arkansas",71949,"Building","Industrial","F1244.006441","Demolition","Excess Asset"
532,"34.9368","-93.40562","Agriculture","Forest Service","OUACHITA NATIONAL FOREST","ROVER","Arkansas",72860,"Building","All Other","F1260.006441","Demolition","Excess Asset"
533,"34.46666","-94.15444","Agriculture","Forest Service","OUACHITA NATIONAL FOREST","BOARD CAMP","Arkansas",71953,"Building","All Other","F2016.006441","Demolition","Excess Asset"
788,"38.876422","-119.985336","Agriculture","Forest Service","LTBMU-CALIFORNIA","SOUTH LAKE TAHOE","California",96150,"Building","Industrial","F1087010315","Demolition","Excess Asset"
790,"40.46323","-123.5244166","Agriculture","Forest Service","SIX RIVERS NATIONAL FOREST","HYAMPOM","California",95526,"Building","All Other","F1116.004041","Demolition","Excess Asset"
791,"39.9375","-120.9416667","Agriculture","Forest Service","PLUMAS NATIONAL FOREST","QUINCY","California",95971,"Building","All Other","F1146.004101","Demolition","Excess Asset"
793,"41.476742","-120.545584","Agriculture","Forest Service","MODOC NATIONAL FOREST","ALTURAS","California",96101,"Building","Industrial","F1151.003991","Demolition","Excess Asset"
794,"41.49444444","-120.5494444","Agriculture","Forest Service","MODOC NATIONAL FOREST","ALTURAS","California",96101,"Building","Industrial","F1159.003991","Demolition","Excess Asset"
795,"34.28892777","-117.21369722","Agriculture","Forest Service","SAN BERNARDINO N.F. - SUPERVISOR'S OFFICE","BLUE JAY","California",92407,"Building","All Other","F11643.004171","Demolition","Excess Asset"
796,"39.9375","-120.9416667","Agriculture","Forest Service","PLUMAS NATIONAL FOREST","QUINCY","California",95971,"Building","Warehouses","F1167.004101","Demolition","Excess Asset"
797,"34.5308583","-120.06478231","Agriculture","Forest Service","LOS PADRES NATIONAL FOREST","SANTA YNEZ","California",93117,"Building","All Other","F1168.003871","Demolition","Excess Asset"
798,"34.53018834","-120.06525231","Agriculture","Forest Service","LOS PADRES NATIONAL FOREST","SANTA YNEZ","California",93117,"Building","Industrial","F1169.003871","Demolition","Excess Asset"
799,"37.06522","-119.15568","Agriculture","Forest Service","SIERRA NATIONAL FOREST","LAKESHORE","California",93664,"Building","All Other","F1177.004381","Demolition","Excess Asset"
800,"36.9145","-119.04022","Agriculture","Forest Service","SIERRA NATIONAL FOREST","PINEHURST","California",17,"Building","All Other","F1180.004381","Demolition","Excess Asset"
801,"40.39976111","-122.9563","Agriculture","Forest Service","SHASTA-TRINITY NF","PLATINA","California",96047,"Building","Service","F1192.004291","Demolition","Excess Asset"
802,"34.541012","-119.18212622","Agriculture","Forest Service","LOS PADRES NATIONAL FOREST","OJAI","California",93023,"Building","Industrial","F1195.003871","Demolition","Excess Asset"
803,"39.26861111","-121.0172222","Agriculture","Forest Service","TAHOE NATIONAL FOREST","NEVADA CITY","California",95959,"Building","Industrial","F1195.004481","Demolition","Excess Asset"
804,"39.9375","-120.9416667","Agriculture","Forest Service","PLUMAS NATIONAL FOREST","QUINCY","California",95971,"Building","Service","F1207.004101","Demolition","Excess Asset"
805,"36.82972222","-119.685","Agriculture","Forest Service","SIERRA NATIONAL FOREST","CLOVIS","California",93611,"Building","Communications Systems","F1209.004381","Demolition","Excess Asset"
806,"41.26","-123.33","Agriculture","Forest Service","KLAMATH NATIONAL FOREST (CALIFORNIA)","FORKS OF SALMON","California",96031,"Building","All Other","F1210.003771","Demolition","Excess Asset"
807,"39.9375","-120.9416667","Agriculture","Forest Service","PLUMAS NATIONAL FOREST","QUINCY","California",95971,"Building","Service","F1210.004101","Demolition","Excess Asset"
808,"39.9375","-120.9416667","Agriculture","Forest Service","PLUMAS NATIONAL FOREST","QUINCY","California",95971,"Building","Service","F1212.004101","Demolition","Excess Asset"
809,"41.49444444","-120.5494444","Agriculture","Forest Service","MODOC NATIONAL FOREST","ALTURAS","California",96101,"Building","Service","F1217.003991","Demolition","Excess Asset"
810,"39.53027778","-122.2119444","Agriculture","Forest Service","MENDOCINO NATIONAL FOREST","WILLOWS","California",95988,"Building","Industrial","F1243.003931","Demolition","Excess Asset"
811,"39.26861111","-121.0172222","Agriculture","Forest Service","TAHOE NATIONAL FOREST","NEVADA CITY","California",95959,"Building","All Other","F1244.004481","Demolition","Excess Asset"
812,"33.74315277","-117.65868889","Agriculture","Forest Service","CLEVELAND NATIONAL FOREST","SILVERADO","California",92676,"Building","All Other","F12594.003621","Demolition","Excess Asset"
813,"36.82972222","-119.685","Agriculture","Forest Service","SIERRA NATIONAL FOREST","CLOVIS","California",93611,"Building","All Other","F1282.004381","Demolition","Excess Asset"
814,"38.73","-120.8219444","Agriculture","Forest Service","ELDORADO N.F.","PLACERVILLE","California",95667,"Building","Service","F1288.003661","Demolition","Excess Asset"
815,"39.39115","-122.4361","Agriculture","Forest Service","MENDOCINO NATIONAL FOREST","ELK CREEK","California",95988,"Building","All Other","F1298.003931","Demolition","Excess Asset"
816,"34.19622222","-117.04975","Agriculture","Forest Service","SAN BERNARDINO N.F. - SUPERVISOR'S OFFICE","ARROWBEAR LAKE","California",92314,"Building","All Other","F13025.004171","Demolition","Excess Asset"
817,"40.62727778","-123.48277778","Agriculture","Forest Service","SHASTA-TRINITY NF","HYAMPOM","California",96046,"Building","All Other","F1323.004291","Demolition","Excess Asset"
818,"40.54822222","-123.16511111","Agriculture","Forest Service","SHASTA-TRINITY NF","HAYFORK","California",96041,"Building","All Other","F1324.004291","Demolition","Excess Asset"
819,"34.27084723","-117.42419167","Agriculture","Forest Service","SAN BERNARDINO N.F. - SUPERVISOR'S OFFICE","SUMMIT","California",92407,"Building","Service","F1324010338","Demolition","Excess Asset"
820,"41.795376","-122.155739","Agriculture","Forest Service","KLAMATH NATIONAL FOREST (CALIFORNIA)","MOUNT HEBRON","California",96058,"Building","Service","F1327.003771","Demolition","Excess Asset"
821,"37.06554","-119.15589","Agriculture","Forest Service","SIERRA NATIONAL FOREST","CLOVIS","California",93611,"Building","All Other","F1327.004381","Demolition","Excess Asset"
823,"37.97777778","-120.3694444","Agriculture","Forest Service","STANISLAUS NATIONAL FOREST","SONORA","California",95370,"Building","All Other","F1417.004431","Demolition","Excess Asset"
824,"37.97777778","-120.3694444","Agriculture","Forest Service","STANISLAUS NATIONAL FOREST","SONORA","California",95370,"Building","Industrial","F1437.004431","Demolition","Excess Asset"
825,"41.931492","-123.478302","Agriculture","Forest Service","KLAMATH NATIONAL FOREST (CALIFORNIA)","HAPPY CAMP","California",34,"Building","All Other","F1521.003771","Demolition","Excess Asset"
826,"36.07694444","-119.0369444","Agriculture","Forest Service","SEQUOIA NATIONAL FOREST","PORTERVILLE","California",93257,"Building","Service","F1562.004231","Demolition","Excess Asset"
827,"32.73185278","-116.49311944","Agriculture","Forest Service","CLEVELAND NATIONAL FOREST","PINE VALLEY","California",91906,"Building","All Other","F1625010443","Demolition","Excess Asset"
828,"40.41055556","-120.6413889","Agriculture","Forest Service","LASSEN NATION FOREST","SUSANVILLE","California",96130,"Building","All Other","F1626.003831","Demolition","Excess Asset"
829,"34.67228711","-119.66499183","Agriculture","Forest Service","LOS PADRES NATIONAL FOREST","MONTECITO","California",32,"Building","Service","F1660.003871","Demolition","Excess Asset"
830,"34.63051026","-119.75984964","Agriculture","Forest Service","LOS PADRES NATIONAL FOREST","GOLETA","California",32,"Building","Service","F1678.003871","Demolition","Excess Asset"
831,"34.70212474","-119.57786392","Agriculture","Forest Service","LOS PADRES NATIONAL FOREST","MONTECITO","California",32,"Building","Service","F1701.003871","Demolition","Excess Asset"
832,"37.97777778","-120.3694444","Agriculture","Forest Service","STANISLAUS NATIONAL FOREST","SONORA","California",95370,"Building","All Other","F1793.004431","Demolition","Excess Asset"
833,"37.97777778","-120.3694444","Agriculture","Forest Service","STANISLAUS NATIONAL FOREST","SONORA","California",95370,"Building","All Other","F1799.004431","Demolition","Excess Asset"
834,"37.97777778","-120.3694444","Agriculture","Forest Service","STANISLAUS NATIONAL FOREST","SONORA","California",95370,"Building","All Other","F1805.004431","Demolition","Excess Asset"
835,"36.07694444","-119.0369444","Agriculture","Forest Service","SEQUOIA NATIONAL FOREST","PORTERVILLE","California",93257,"Building","Service","F1825.004231","Demolition","Excess Asset"
836,"37.97777778","-120.3694444","Agriculture","Forest Service","STANISLAUS NATIONAL FOREST","SONORA","California",95370,"Building","All Other","F1825.004431","Demolition","Excess Asset"
837,"39.53027778","-122.2119444","Agriculture","Forest Service","MENDOCINO NATIONAL FOREST","WILLOWS","California",95988,"Building","Service","F1870.003931","Demolition","Excess Asset"
838,"34.63033028","-119.7615496","Agriculture","Forest Service","LOS PADRES NATIONAL FOREST","GOLETA","California",32,"Building","Service","F1968.003871","Demolition","Excess Asset"
840,"41.790901","-123.387444","Agriculture","Forest Service","KLAMATH NATIONAL FOREST (CALIFORNIA)","HAPPY CAMP","California",96039,"Building","All Other","F2058.003771","Demolition","Excess Asset"
841,"39.37870093","-122.55046352","Agriculture","Forest Service","MENDOCINO NATIONAL FOREST","STONYFORD","California",95979,"Building","All Other","F2065.003931","Demolition","Excess Asset"
842,"39.37797757","-122.54951049","Agriculture","Forest Service","MENDOCINO NATIONAL FOREST","STONYFORD","California",95979,"Building","All Other","F2067.003931","Demolition","Excess Asset"
843,"39.37832466","-122.54929637","Agriculture","Forest Service","MENDOCINO NATIONAL FOREST","STONYFORD","California",95979,"Building","All Other","F2069.003931","Demolition","Excess Asset"
844,"39.37804154","-122.54875739","Agriculture","Forest Service","MENDOCINO NATIONAL FOREST","STONYFORD","California",95979,"Building","All Other","F2071.003931","Demolition","Excess Asset"
845,"36.07694444","-119.0369444","Agriculture","Forest Service","SEQUOIA NATIONAL FOREST","PORTERVILLE","California",93257,"Building","Service","F2086.004231","Demolition","Excess Asset"
846,"36.07694444","-119.0369444","Agriculture","Forest Service","SEQUOIA NATIONAL FOREST","PORTERVILLE","California",93257,"Building","Service","F2088.004231","Demolition","Excess Asset"
847,"39.9375","-120.9416667","Agriculture","Forest Service","PLUMAS NATIONAL FOREST","QUINCY","California",95971,"Building","All Other","F2135.004101","Demolition","Excess Asset"
849,"39.9375","-120.9416667","Agriculture","Forest Service","PLUMAS NATIONAL FOREST","QUINCY","California",95971,"Building","Service","F2138.004101","Demolition","Excess Asset"
850,"39.26026","-122.71481","Agriculture","Forest Service","MENDOCINO NATIONAL FOREST","STONYFORD","California",48,"Building","Communications Systems","F2154.003931","Demolition","Excess Asset"
851,"41.840355","-123.196587","Agriculture","Forest Service","KLAMATH NATIONAL FOREST (CALIFORNIA)","HAMBURG","California",96086,"Building","All Other","F2162.003771","Demolition","Excess Asset"
852,"41.840355","-123.196587","Agriculture","Forest Service","KLAMATH NATIONAL FOREST (CALIFORNIA)","HAMBURG","California",96086,"Building","All Other","F2164.003771","Demolition","Excess Asset"
853,"39.9375","-120.9416667","Agriculture","Forest Service","PLUMAS NATIONAL FOREST","QUINCY","California",95971,"Building","Industrial","F2230.004101","Demolition","Excess Asset"
854,"39.9375","-120.9416667","Agriculture","Forest Service","PLUMAS NATIONAL FOREST","QUINCY","California",95971,"Building","All Other","F2232.004101","Demolition","Excess Asset"
860,"37.37","-118.3966667","Agriculture","Forest Service","INYO NF CA","BISHOP","California",93514,"Building","Service","F2741.003721","Demolition","Excess Asset"
861,"36.07694444","-119.0369444","Agriculture","Forest Service","SEQUOIA NATIONAL FOREST","PORTERVILLE","California",93257,"Building","All Other","F4542010432","Demolition","Excess Asset"
862,"36.07694444","-119.0369444","Agriculture","Forest Service","SEQUOIA NATIONAL FOREST","PORTERVILLE","California",93257,"Building","All Other","F4543010432","Demolition","Excess Asset"
863,"36.07694444","-119.0369444","Agriculture","Forest Service","SEQUOIA NATIONAL FOREST","PORTERVILLE","California",93257,"Building","All Other","F4544010432","Demolition","Excess Asset"
864,"36.13667","-118.80806","Agriculture","Forest Service","SEQUOIA NATIONAL FOREST","SPRINGVILLE","California",93265,"Building","All Other","F4545010432","Demolition","Excess Asset"
865,"36.07694444","-119.0369444","Agriculture","Forest Service","SEQUOIA NATIONAL FOREST","PORTERVILLE","California",93257,"Building","All Other","F4546010432","Demolition","Excess Asset"
866,"36.13667","-118.80806","Agriculture","Forest Service","SEQUOIA NATIONAL FOREST","SPRINGVILLE","California",93265,"Building","All Other","F4547010432","Demolition","Excess Asset"
867,"36.13667","-118.80806","Agriculture","Forest Service","SEQUOIA NATIONAL FOREST","SPRINGVILLE","California",93265,"Building","All Other","F4554010432","Demolition","Excess Asset"
868,"36.07694444","-119.0369444","Agriculture","Forest Service","SEQUOIA NATIONAL FOREST","PORTERVILLE","California",93257,"Building","All Other","F4557010432","Demolition","Excess Asset"
869,"39.26861111","-121.0172222","Agriculture","Forest Service","TAHOE NATIONAL FOREST","NEVADA CITY","California",95959,"Building","All Other","F464010388","Demolition","Excess Asset"
870,"36.07694444","-119.0369444","Agriculture","Forest Service","SEQUOIA NATIONAL FOREST","PORTERVILLE","California",93257,"Building","All Other","F4847010432","Demolition","Excess Asset"
871,"36.07694444","-119.0369444","Agriculture","Forest Service","SEQUOIA NATIONAL FOREST","PORTERVILLE","California",93257,"Building","All Other","F4848010432","Demolition","Excess Asset"
872,"36.07694444","-119.0369444","Agriculture","Forest Service","SEQUOIA NATIONAL FOREST","PORTERVILLE","California",93257,"Building","All Other","F4867010432","Demolition","Excess Asset"
873,"34.14722222","-118.0336111","Agriculture","Forest Service","ANGELES NATIONAL FOREST","ARCADIA","California",91007,"Building","Office","F6020.003561","Demolition","Excess Asset"
874,"34.14722222","-118.0336111","Agriculture","Forest Service","ANGELES NATIONAL FOREST","ARCADIA","California",91007,"Building","All Other","F8154.003561","Demolition","Excess Asset"
875,"34.14722222","-118.0336111","Agriculture","Forest Service","ANGELES NATIONAL FOREST","ARCADIA","California",91007,"Building","Industrial","F8177.003561","Demolition","Excess Asset"
876,"34.14722222","-118.0336111","Agriculture","Forest Service","ANGELES NATIONAL FOREST","ARCADIA","California",91007,"Building","Industrial","F8185.003561","Demolition","Excess Asset"
877,"34.14722222","-118.0336111","Agriculture","Forest Service","ANGELES NATIONAL FOREST","ARCADIA","California",91007,"Building","All Other","F8187.003561","Demolition","Excess Asset"
878,"34.14722222","-118.0336111","Agriculture","Forest Service","ANGELES NATIONAL FOREST","ARCADIA","California",91007,"Building","Industrial","F8188.003561","Demolition","Excess Asset"
879,"35.247238","-120.266388","Agriculture","Forest Service","LOS PADRES NATIONAL FOREST","NIPOMO","California",93453,"Building","Industrial","F848010472","Demolition","Excess Asset"
880,"34.14722222","-118.0336111","Agriculture","Forest Service","ANGELES NATIONAL FOREST","ARCADIA","California",91007,"Building","Industrial","F8496.003561","Demolition","Excess Asset"
881,"40.34566666","-123.36297222","Agriculture","Forest Service","SHASTA-TRINITY NF","HAYFORK","California",95595,"Building","Service","F953010395","Demolition","Excess Asset"
1101,"33.35859722","-116.86746945","Agriculture","Forest Service","CLEVELAND NATIONAL FOREST","Warner Springs","California",92086,"Building","All Other","F12603.003621","Demolition","Excess Asset"
1182,"33.02222222","-117.095","Agriculture","Forest Service","CLEVELAND NATIONAL FOREST","San Diego","California",92127,"Building","All Other","F12527.003621","Demolition","Excess Asset"
1183,"33.02222222","-117.095","Agriculture","Forest Service","CLEVELAND NATIONAL FOREST","San Diego","California",92127,"Building","All Other","F12598.003621","Demolition","Excess Asset"
1184,"33.02222222","-117.095","Agriculture","Forest Service","CLEVELAND NATIONAL FOREST","San Diego","California",92127,"Building","All Other","F12606.003621","Demolition","Excess Asset"
1187,"33.02222222","-117.095","Agriculture","Forest Service","CLEVELAND NATIONAL FOREST","San Diego","California",92127,"Building","Industrial","F12626.003621","Demolition","Excess Asset"
1188,"33.02222222","-117.095","Agriculture","Forest Service","CLEVELAND NATIONAL FOREST","San Diego","California",92127,"Building","All Other","F13980.003621","Demolition","Excess Asset"
1192,"33.02222222","-117.095","Agriculture","Forest Service","CLEVELAND NATIONAL FOREST","San Diego","California",92127,"Building","All Other","F14334.003621","Demolition","Excess Asset"
1193,"33.02222222","-117.095","Agriculture","Forest Service","CLEVELAND NATIONAL FOREST","San Diego","California",92127,"Building","All Other","F14374.003621","Demolition","Excess Asset"
1194,"33.02222222","-117.095","Agriculture","Forest Service","CLEVELAND NATIONAL FOREST","San Diego","California",92127,"Building","All Other","F14378.003621","Demolition","Excess Asset"
1195,"33.02222222","-117.095","Agriculture","Forest Service","CLEVELAND NATIONAL FOREST","San Diego","California",92127,"Building","All Other","F378010443","Demolition","Excess Asset"
1243,"34.851893","-119.484513","Agriculture","Forest Service","LOS PADRES NATIONAL FOREST","Maricopa","California",93252,"Building","All Other","F1248.003871","Demolition","Excess Asset"
1321,"40.78305556","-124.1861111","Agriculture","Forest Service","SIX RIVERS NATIONAL FOREST","Eureka","California",95501,"Building","All Other","F1062.004041","Demolition","Excess Asset"
1322,"40.78305556","-124.1861111","Agriculture","Forest Service","SIX RIVERS NATIONAL FOREST","Eureka","California",95501,"Building","All Other","F1558.004041","Demolition","Excess Asset"
1323,"40.78305556","-124.1861111","Agriculture","Forest Service","SIX RIVERS NATIONAL FOREST","Eureka","California",95501,"Building","All Other","F1559.004041","Demolition","Excess Asset"
1326,"40.78305556","-124.1861111","Agriculture","Forest Service","SIX RIVERS NATIONAL FOREST","Eureka","California",95501,"Building","All Other","F1569.004041","Demolition","Excess Asset"
1327,"40.78305556","-124.1861111","Agriculture","Forest Service","SIX RIVERS NATIONAL FOREST","Eureka","California",95501,"Building","All Other","F1592.004041","Demolition","Excess Asset"
1328,"40.78305556","-124.1861111","Agriculture","Forest Service","SIX RIVERS NATIONAL FOREST","Eureka","California",95501,"Building","All Other","F1598.004041","Demolition","Excess Asset"
1329,"40.78305556","-124.1861111","Agriculture","Forest Service","SIX RIVERS NATIONAL FOREST","Eureka","California",95501,"Building","Communications Systems","F1662.004041","Demolition","Excess Asset"
1331,"40.78305556","-124.1861111","Agriculture","Forest Service","SIX RIVERS NATIONAL FOREST","Eureka","California",95501,"Building","All Other","F1705.004041","Demolition","Excess Asset"
1334,"40.78305556","-124.1861111","Agriculture","Forest Service","SIX RIVERS NATIONAL FOREST","Eureka","California",95501,"Building","All Other","F1706.004041","Demolition","Excess Asset"
1337,"40.78305556","-124.1861111","Agriculture","Forest Service","SIX RIVERS NATIONAL FOREST","Eureka","California",95501,"Building","All Other","F1707.004041","Demolition","Excess Asset"
1338,"40.78305556","-124.1861111","Agriculture","Forest Service","SIX RIVERS NATIONAL FOREST","Eureka","California",95501,"Building","All Other","F1740.004041","Demolition","Excess Asset"
1339,"40.78305556","-124.1861111","Agriculture","Forest Service","SIX RIVERS NATIONAL FOREST","Eureka","California",95501,"Building","All Other","F1785.004041","Demolition","Excess Asset"
1340,"40.78305556","-124.1861111","Agriculture","Forest Service","SIX RIVERS NATIONAL FOREST","Eureka","California",95501,"Building","All Other","F1795.004041","Demolition","Excess Asset"
1594,"40.2077","-123.4597166","Agriculture","Forest Service","SIX RIVERS NATIONAL FOREST","Orick","California",95595,"Building","All Other","F1746.004041","Demolition","Excess Asset"
1791,"34.14722222","-118.0336111","Agriculture","Forest Service","ANGELES NATIONAL FOREST","ARCADIA","California",91007,"Building","All Other","F6187.003561","Demolition","New Excess Asset Identified in 2010"
1792,"34.26240556","-116.92844167","Agriculture","Forest Service","SAN BERNARDINO N.F. - SUPERVISOR'S OFFICE","BIG BEAR LAKE","California",92314,"Building","Industrial","F11621.004171","Demolition","New Excess Asset Identified in 2010"
1793,"34.148448","-116.980202","Agriculture","Forest Service","SAN BERNARDINO N.F. - SUPERVISOR'S OFFICE","BIG BEAR LAKE","California",92339,"Building","All Other","F11684.004171","Demolition","New Excess Asset Identified in 2010"
1794,"37.37","-118.3966667","Agriculture","Forest Service","INYO NF CA","BISHOP","California",93514,"Building","All Other","F1051010594","Demolition","New Excess Asset Identified in 2010"
1795,"37.37","-118.3966667","Agriculture","Forest Service","INYO NF CA","BISHOP","California",93514,"Building","All Other","F1052010594","Demolition","New Excess Asset Identified in 2010"
1796,"36.82972222","-119.685","Agriculture","Forest Service","SIERRA NATIONAL FOREST","CLOVIS","California",93611,"Building","All Other","F1033.004381","Demolition","New Excess Asset Identified in 2010"
1797,"36.82972222","-119.685","Agriculture","Forest Service","SIERRA NATIONAL FOREST","CLOVIS","California",93611,"Building","All Other","F1195.004381","Demolition","New Excess Asset Identified in 2010"
1798,"36.82972222","-119.685","Agriculture","Forest Service","SIERRA NATIONAL FOREST","CLOVIS","California",93611,"Building","All Other","F1196.004381","Demolition","New Excess Asset Identified in 2010"
1799,"36.82972222","-119.685","Agriculture","Forest Service","SIERRA NATIONAL FOREST","CLOVIS","California",93611,"Building","All Other","F1403.004381","Demolition","New Excess Asset Identified in 2010"
1800,"36.82972222","-119.685","Agriculture","Forest Service","SIERRA NATIONAL FOREST","CLOVIS","California",93611,"Building","Industrial","F2766.004381","Demolition","New Excess Asset Identified in 2010"
1801,"36.82972222","-119.685","Agriculture","Forest Service","SIERRA NATIONAL FOREST","CLOVIS","California",93611,"Building","Service","F3379010456","Demolition","New Excess Asset Identified in 2010"
1802,"37.37859","-119.63042","Agriculture","Forest Service","SIERRA NATIONAL FOREST","OAKHURST","California",93644,"Building","All Other","F1034.004381","Demolition","New Excess Asset Identified in 2010"
1803,"37.40788","-119.35102","Agriculture","Forest Service","SIERRA NATIONAL FOREST","OAKHURST","California",93644,"Building","All Other","F1281.004381","Demolition","New Excess Asset Identified in 2010"
1804,"36.90759","-119.30694","Agriculture","Forest Service","SIERRA NATIONAL FOREST","TRIMMER","California",93657,"Building","All Other","F1188.004381","Demolition","New Excess Asset Identified in 2010"
1805,"40.34575","-123.36319444","Agriculture","Forest Service","SHASTA-TRINITY NF","HAYFORK","California",95595,"Building","Service","F2767.004291","Demolition","New Excess Asset Identified in 2010"
1953,"39.25984574","-105.10133939","Agriculture","Forest Service","PIKE & SAN ISABEL NF","Sedalia","Colorado",80135,"Building","All Other","F8889010465","Demolition","Excess Asset"
1954,"39.26003721","-105.10133055","Agriculture","Forest Service","PIKE & SAN ISABEL NF","Sedalia","Colorado",80135,"Building","All Other","F8890010465","Demolition","Excess Asset"
1958,"39.99681984","-105.44950182","Agriculture","Forest Service","ARAPAHO & ROOSEVELT NF","Boulder","Colorado",80302,"Building","All Other","F18667010399","Demolition","Excess Asset"
1960,"39.99685219","-105.44915073","Agriculture","Forest Service","ARAPAHO & ROOSEVELT NF","Boulder","Colorado",80302,"Building","Service","F26587010399","Demolition","Excess Asset"
1963,"39.9004161","-105.6491419","Agriculture","Forest Service","ARAPAHO & ROOSEVELT NF","Golden","Colorado",80403,"Building","All Other","F18768010399","Demolition","Excess Asset"
1964,"39.90053011","-105.64854212","Agriculture","Forest Service","ARAPAHO & ROOSEVELT NF","Golden","Colorado",80403,"Building","Service","F18772010399","Demolition","Excess Asset"
1965,"39.90126977","-105.64745886","Agriculture","Forest Service","ARAPAHO & ROOSEVELT NF","Golden","Colorado",80403,"Building","Service","F18774010399","Demolition","Excess Asset"
1975,"38.50261918","-107.45162578","Agriculture","Forest Service","GRAND MESA UNC & GUNN NF","Gunnison","Colorado",81230,"Building","Service","F14154010431","Demolition","Excess Asset"
1983,"39.71735554","-107.3004459","Agriculture","Forest Service","WHITE RIVER NF","Glenwood Springs","Colorado",81601,"Building","All Other","F18062010314","Demolition","Excess Asset"
1984,"39.71702861","-107.30042265","Agriculture","Forest Service","WHITE RIVER NF","Glenwood Springs","Colorado",81601,"Building","Service","F18063010314","Demolition","Excess Asset"
1989,"39.80160744","-107.16086699","Agriculture","Forest Service","WHITE RIVER NF","Gypsum","Colorado",81637,"Building","Service","F3238.001831","Demolition","Excess Asset"
2022,"38.73820328","-106.72730819","Agriculture","Forest Service","GRAND MESA UNC & GUNN NF","ALMONT","Colorado",81210,"Building","All Other","F1094.001191","Demolition","Excess Asset"
2023,"38.4443108","-109.05206072","Agriculture","Forest Service","MANTI-LASAL NATIONAL FOREST","BEDROCK","Colorado",81411,"Building","Dormitories/Barracks","F1167.003091","Demolition","Excess Asset"
2024,"40.79580418","-107.28750398","Agriculture","Forest Service","ROUTT NATIONAL FOREST","HAYDEN","Colorado",81639,"Building","Industrial","F1347.001561","Demolition","Excess Asset"
2025,"40.21517235","-105.85816406","Agriculture","Forest Service","ARAPAHO & ROOSEVELT NF","GRAND LAKE","Colorado",80447,"Building","All Other","F1379.001481","Demolition","Excess Asset"
2026,"40.10923695","-106.68287159","Agriculture","Forest Service","ROUTT NATIONAL FOREST","TOPONAS","Colorado",80467,"Building","All Other","F15154010454","Demolition","Excess Asset"
2027,"40.10949097","-106.68295367","Agriculture","Forest Service","ROUTT NATIONAL FOREST","TOPONAS","Colorado",80467,"Building","Service","F1836.001561","Demolition","Excess Asset"
2028,"40.10940639","-106.68294133","Agriculture","Forest Service","ROUTT NATIONAL FOREST","TOPONAS","Colorado",80467,"Building","Service","F1838.001561","Demolition","Excess Asset"
2029,"39.95394777","-105.60481439","Agriculture","Forest Service","ARAPAHO & ROOSEVELT NF","ELDORA","Colorado",80466,"Building","Service","F18672010399","Demolition","Excess Asset"
2030,"39.9531831","-105.60561111","Agriculture","Forest Service","ARAPAHO & ROOSEVELT NF","ELDORA","Colorado",80466,"Building","Service","F18674010399","Demolition","Excess Asset"
2031,"39.95355555","-105.60930277","Agriculture","Forest Service","ARAPAHO & ROOSEVELT NF","ELDORA","Colorado",80466,"Building","Service","F18676010399","Demolition","Excess Asset"
2032,"39.95443705","-105.59977807","Agriculture","Forest Service","ARAPAHO & ROOSEVELT NF","ELDORA","Colorado",80466,"Building","All Other","F18680010399","Demolition","Excess Asset"
2033,"39.95420867","-105.59970454","Agriculture","Forest Service","ARAPAHO & ROOSEVELT NF","ELDORA","Colorado",80466,"Building","Service","F18681010399","Demolition","Excess Asset"
2034,"39.95066593","-105.5919693","Agriculture","Forest Service","ARAPAHO & ROOSEVELT NF","ELDORA","Colorado",80466,"Building","All Other","F18762010399","Demolition","Excess Asset"
2035,"39.95048342","-105.59185744","Agriculture","Forest Service","ARAPAHO & ROOSEVELT NF","ELDORA","Colorado",80466,"Building","All Other","F18763010399","Demolition","Excess Asset"
2036,"40.11012563","-105.35827472","Agriculture","Forest Service","ARAPAHO & ROOSEVELT NF","JAMESTOWN","Colorado",80481,"Building","All Other","F18779010399","Demolition","Excess Asset"
2037,"40.52326853","-105.07472714","Agriculture","Forest Service","ARAPAHO & ROOSEVELT NF","FORT COLLINS","Colorado",80525,"Building","Service","F18784010399","Demolition","Excess Asset"
2038,"39.94198084","-105.50915968","Agriculture","Forest Service","ARAPAHO & ROOSEVELT NF","NEDERLAND","Colorado",80466,"Building","Service","F18787010399","Demolition","Excess Asset"
2039,"39.99201154","-107.61266356","Agriculture","Forest Service","WHITE RIVER NF","MEEKER","Colorado",81641,"Building","Family Housing","F2118.001831","Demolition","Excess Asset"
2040,"38.61568514","-107.39683897","Agriculture","Forest Service","GRAND MESA UNC & GUNN NF","SOMERSET","Colorado",81230,"Building","All Other","F2288.001191","Demolition","Excess Asset"
2041,"40.55676117","-106.59603557","Agriculture","Forest Service","ROUTT NATIONAL FOREST","COALMONT","Colorado",80430,"Building","Service","F3054.001561","Demolition","Excess Asset"
2042,"39.40642451","-105.47531671","Agriculture","Forest Service","PIKE & SAN ISABEL NF","BAILEY","Colorado",80421,"Building","Service","F3057.001621","Demolition","Excess Asset"
2045,"37.28282799","-102.61475053","Agriculture","Forest Service","COMANCHE NATIONAL GRASSLANDS","SPRINGFIELD","Colorado",81073,"Building","All Other","F3122.001621","Demolition","Excess Asset"
2046,"40.43393259","-106.36301268","Agriculture","Forest Service","ROUTT NATIONAL FOREST","COALMONT","Colorado",80480,"Building","Service","F3186.001561","Demolition","Excess Asset"
2047,"37.28294394","-102.614152","Agriculture","Forest Service","COMANCHE NATIONAL GRASSLANDS","SPRINGFIELD","Colorado",81073,"Building","All Other","F3206.001621","Demolition","Excess Asset"
2048,"39.37814531","-105.09357396","Agriculture","Forest Service","PIKE & SAN ISABEL NF","LOUVIERS","Colorado",80135,"Building","All Other","F4307.001621","Demolition","Excess Asset"
2049,"40.1038","-105.489","Agriculture","Forest Service","ARAPAHO & ROOSEVELT NF","WARD","Colorado",80481,"Building","Service","F5918010399","Demolition","Excess Asset"
2050,"37.36858489","-102.74290874","Agriculture","Forest Service","COMANCHE NATIONAL GRASSLANDS","PRITCHETT","Colorado",81073,"Building","All Other","F6058.001621","Demolition","Excess Asset"
2051,"39.22491303","-105.99590067","Agriculture","Forest Service","PIKE & SAN ISABEL NF","FAIRPLAY","Colorado",80440,"Building","All Other","F9082010465","Demolition","Excess Asset"
2169,"29.105683","-81.629783","Agriculture","Forest Service","NATIONAL FOREST IN FLORIDA","Altoona","Florida",32702,"Building","All Other","F2918.006121","Demolition","Excess Asset"
2188,"33.15930556","-83.603","Agriculture","Forest Service","CHATTAHOOCHEE NATIONAL FOREST","ROUND OAK","Georgia",31038,"Building","Industrial","F1142.005951","Demolition","Excess Asset"
2359,"42.35478387","-112.97188178","Agriculture","Forest Service","SAWTOOTH NATIONAL FOREST - IDAHO","Rockland","Idaho",83271,"Building","Service","F1033.003221","Demolition","Excess Asset"
2363,"42.52193433","-111.17512227","Agriculture","Forest Service","CARIBOU NATIONAL FOREST","Soda Springs","Idaho",83276,"Building","All Other","F1020.002861","Demolition","Excess Asset"
2364,"42.52184464","-111.17491011","Agriculture","Forest Service","CARIBOU NATIONAL FOREST","Soda Springs","Idaho",83276,"Building","Service","F1021.002861","Demolition","Excess Asset"
2365,"42.52191654","-111.17498799","Agriculture","Forest Service","CARIBOU NATIONAL FOREST","Soda Springs","Idaho",83276,"Building","Service","F1022.002861","Demolition","Excess Asset"
2370,"44.55382176","-114.85020583","Agriculture","Forest Service","CHALLIS NATIONAL FOREST","Stanley","Idaho",83278,"Building","Service","F9053010540","Demolition","Excess Asset"
2371,"43.96595248","-114.74884894","Agriculture","Forest Service","SAWTOOTH NATIONAL FOREST - IDAHO","Stanley","Idaho",83278,"Building","Service","F1286.003221","Demolition","Excess Asset"
2372,"44.19215879","-114.75915484","Agriculture","Forest Service","SAWTOOTH NATIONAL FOREST - IDAHO","Stanley","Idaho",83278,"Building","Service","F1287.003221","Demolition","Excess Asset"
2383,"43.59444064","-114.41049404","Agriculture","Forest Service","SAWTOOTH NATIONAL FOREST - IDAHO","KETCHUM","Idaho",83333,"Building","All Other","F1064.003221","Demolition","Excess Asset"
2384,"46.35687052","-115.74521611","Agriculture","Forest Service","CLEARWATER NF","PIERCE","Idaho",83546,"Building","Other Institutional Uses","F1066.000411","Demolition","Excess Asset"
2386,"45.6357","-116.2821","Agriculture","Forest Service","NEZ PERCE NATIONAL FOREST","LUCILE","Idaho",83542,"Building","All Other","F1070.000961","Demolition","Excess Asset"
2388,"43.1553186","-111.2363039","Agriculture","Forest Service","CARIBOU NATIONAL FOREST","Swan Valley","Idaho",83449,"Building","Service","F1000.002861","Demolition","Excess Asset"
2389,"44.77625821","-114.68324581","Agriculture","Forest Service","CHALLIS NATIONAL FOREST","Shoup","Idaho",83469,"Building","Service","F3674010540","Demolition","Excess Asset"
2392,"46.5127357","-115.36641092","Agriculture","Forest Service","CLEARWATER NF","Elk City","Idaho",83525,"Building","All Other","F1714.000411","Demolition","Excess Asset"
2393,"46.57788259","-114.61854198","Agriculture","Forest Service","CLEARWATER NF","Elk City","Idaho",83525,"Building","Service","F2055.000411","Demolition","Excess Asset"
2394,"43.46056272","-111.41449986","Agriculture","Forest Service","TARGHEE NATIONAL FOREST","SWAN VALLEY","Idaho",83401,"Building","All Other","F1095.003281","Demolition","Excess Asset"
2396,"44.02959305","-114.82495709","Agriculture","Forest Service","SAWTOOTH NATIONAL FOREST - IDAHO","STANLEY","Idaho",83278,"Building","Dormitories/Barracks","F1114.003221","Demolition","Excess Asset"
2397,"44.17132745","-114.92894803","Agriculture","Forest Service","SAWTOOTH NATIONAL FOREST - IDAHO","STANLEY","Idaho",83278,"Building","Dormitories/Barracks","F1117.003221","Demolition","Excess Asset"
2400,"45.9818","-115.4046","Agriculture","Forest Service","NEZ PERCE NATIONAL FOREST","ELK CITY","Idaho",83525,"Building","Service","F1138.000961","Demolition","Excess Asset"
2401,"46.14540501","-115.97790277","Agriculture","Forest Service","CLEARWATER NF","KOOSKIA","Idaho",83539,"Building","Office","F1142.000411","Demolition","Excess Asset"
2402,"43.91374453","-113.60967107","Agriculture","Forest Service","CHALLIS NATIONAL FOREST","MACKAY","Idaho",83251,"Building","All Other","F1158.002931","Demolition","Excess Asset"
2403,"45.7088","-115.3441","Agriculture","Forest Service","NEZ PERCE NATIONAL FOREST","ELK CITY","Idaho",83525,"Building","Office","F1162.000961","Demolition","Excess Asset"
2408,"46.101","-115.546","Agriculture","Forest Service","NEZ PERCE NATIONAL FOREST","ELK CITY","Idaho",83525,"Building","Communications Systems","F1167.000961","Demolition","Excess Asset"
2409,"46.0927166","-115.5386166","Agriculture","Forest Service","NEZ PERCE NATIONAL FOREST","ELK CITY","Idaho",83525,"Building","Industrial","F1169.000961","Demolition","Excess Asset"
2410,"46.093","-115.5368","Agriculture","Forest Service","NEZ PERCE NATIONAL FOREST","ELK CITY","Idaho",83525,"Building","Communications Systems","F1170.000961","Demolition","Excess Asset"
2411,"42.22416442","-111.39905113","Agriculture","Forest Service","CARIBOU NATIONAL FOREST","PARIS","Idaho",83261,"Building","All Other","F1172.002861","Demolition","Excess Asset"
2413,"42.22414253","-111.39885635","Agriculture","Forest Service","CARIBOU NATIONAL FOREST","PARIS","Idaho",83261,"Building","All Other","F1175.002861","Demolition","Excess Asset"
2414,"46.14577487","-115.97779048","Agriculture","Forest Service","CLEARWATER NF","KOOSKIA","Idaho",83539,"Building","All Other","F1185.000411","Demolition","Excess Asset"
2415,"46.093","-115.5368","Agriculture","Forest Service","NEZ PERCE NATIONAL FOREST","ELK CITY","Idaho",83525,"Building","All Other","F1185.000961","Demolition","Excess Asset"
2416,"46.0931833","-115.5393","Agriculture","Forest Service","NEZ PERCE NATIONAL FOREST","ELK CITY","Idaho",83525,"Building","Industrial","F1186.000961","Demolition","Excess Asset"
2417,"45.5009549","-115.12974319","Agriculture","Forest Service","PAYETTE NATIONAL FOREST","Elk City","Idaho",83525,"Building","All Other","F20305010444","Demolition","Excess Asset"
2420,"42.66554628","-111.59508238","Agriculture","Forest Service","CARIBOU NATIONAL FOREST","SODA SPRINGS","Idaho",83276,"Building","Family Housing","F1221.002861","Demolition","Excess Asset"
2423,"44.73576823","-116.8347444","Agriculture","Forest Service","PAYETTE NATIONAL FOREST","CAMBRIDGE","Idaho",83610,"Building","All Other","F1239.003141","Demolition","Excess Asset"
2427,"44.16789535","-114.92613232","Agriculture","Forest Service","SAWTOOTH NATIONAL FOREST - IDAHO","STANLEY","Idaho",83278,"Building","All Other","F1257.003221","Demolition","Excess Asset"
2428,"44.16799028","-114.92554183","Agriculture","Forest Service","SAWTOOTH NATIONAL FOREST - IDAHO","STANLEY","Idaho",83278,"Building","All Other","F1258.003221","Demolition","Excess Asset"
2430,"46.69428629","-115.27794967","Agriculture","Forest Service","CLEARWATER NF","Orofino","Idaho",83544,"Building","Service","F1069.000411","Demolition","Excess Asset"
2431,"46.101","-115.546","Agriculture","Forest Service","NEZ PERCE NATIONAL FOREST","ELK CITY","Idaho",83525,"Building","Family Housing","F1260.000961","Demolition","Excess Asset"
2432,"46.66499468","-115.0782724","Agriculture","Forest Service","CLEARWATER NF","Orofino","Idaho",83544,"Building","All Other","F1207.000411","Demolition","Excess Asset"
2437,"44.09537883","-114.86091678","Agriculture","Forest Service","SAWTOOTH NATIONAL FOREST - IDAHO","STANLEY","Idaho",83278,"Building","All Other","F1267.003221","Demolition","Excess Asset"
2438,"46.093","-115.5368","Agriculture","Forest Service","NEZ PERCE NATIONAL FOREST","ELK CITY","Idaho",83525,"Building","All Other","F1271.000961","Demolition","Excess Asset"
2440,"46.093","-115.5368","Agriculture","Forest Service","NEZ PERCE NATIONAL FOREST","ELK CITY","Idaho",83525,"Building","All Other","F1273.000961","Demolition","Excess Asset"
2441,"46.093","-115.5368","Agriculture","Forest Service","NEZ PERCE NATIONAL FOREST","ELK CITY","Idaho",83525,"Building","All Other","F1275.000961","Demolition","Excess Asset"
2442,"43.61033869","-113.93080701","Agriculture","Forest Service","SAWTOOTH NATIONAL FOREST - IDAHO","CAREY","Idaho",83333,"Building","Service","F1276.003221","Demolition","Excess Asset"
2449,"44.58579","-115.67717","Agriculture","Forest Service","BOISE NATIONAL FOREST","Cascade","Idaho",83611,"Building","All Other","F4200.002731","Demolition","Excess Asset"
2450,"43.79350221","-114.42401193","Agriculture","Forest Service","SAWTOOTH NATIONAL FOREST - IDAHO","SUN VALLEY","Idaho",83340,"Building","Family Housing","F1288.003221","Demolition","Excess Asset"
2451,"45.7088","-115.3441","Agriculture","Forest Service","NEZ PERCE NATIONAL FOREST","ELK CITY","Idaho",83525,"Building","All Other","F1292.000961","Demolition","Excess Asset"
2452,"44.46823","-115.582058","Agriculture","Forest Service","BOISE NATIONAL FOREST","Cascade","Idaho",83611,"Building","All Other","F4451010312","Demolition","Excess Asset"
2453,"43.80585003","-114.58234439","Agriculture","Forest Service","SAWTOOTH NATIONAL FOREST - IDAHO","KETCHUM","Idaho",83340,"Building","Service","F1298.003221","Demolition","Excess Asset"
2454,"45.6357","-116.2821","Agriculture","Forest Service","NEZ PERCE NATIONAL FOREST","LUCILE","Idaho",83542,"Building","All Other","F1306.000961","Demolition","Excess Asset"
2455,"45.6357","-116.2821","Agriculture","Forest Service","NEZ PERCE NATIONAL FOREST","LUCILE","Idaho",83542,"Building","All Other","F1309.000961","Demolition","Excess Asset"
2457,"46.093","-115.5368","Agriculture","Forest Service","NEZ PERCE NATIONAL FOREST","ELK CITY","Idaho",83525,"Building","All Other","F1341.000961","Demolition","Excess Asset"
2459,"44.90973903","-116.1068876","Agriculture","Forest Service","PAYETTE NATIONAL FOREST","MCCALL","Idaho",83638,"Building","All Other","F1393.003141","Demolition","Excess Asset"
2466,"44.667","-115.665949","Agriculture","Forest Service","BOISE NATIONAL FOREST","McCall","Idaho",83638,"Building","All Other","F3982.002731","Demolition","Excess Asset"
2467,"44.6515","-115.65611","Agriculture","Forest Service","BOISE NATIONAL FOREST","McCall","Idaho",83638,"Building","Service","F4035.002731","Demolition","Excess Asset"
2468,"44.923513","-115.480668","Agriculture","Forest Service","BOISE NATIONAL FOREST","McCall","Idaho",83638,"Building","All Other","F4339.002731","Demolition","Excess Asset"
2469,"44.42088","-115.40496","Agriculture","Forest Service","BOISE NATIONAL FOREST","McCall","Idaho",83638,"Building","Dormitories/Barracks","F4346.002731","Demolition","Excess Asset"
2470,"44.657311","-115.545857","Agriculture","Forest Service","BOISE NATIONAL FOREST","McCall","Idaho",83638,"Building","Service","F9747010312","Demolition","Excess Asset"
2475,"42.81475504","-111.35031897","Agriculture","Forest Service","CARIBOU NATIONAL FOREST","WAYAN","Idaho",83276,"Building","All Other","F1496.002861","Demolition","Excess Asset"
2478,"45.17281335","-115.57795663","Agriculture","Forest Service","PAYETTE NATIONAL FOREST","McCall","Idaho",83638,"Building","All Other","F1288.003141","Demolition","Excess Asset"
2479,"44.97454738","-115.72900597","Agriculture","Forest Service","PAYETTE NATIONAL FOREST","McCall","Idaho",83638,"Building","All Other","F16092010444","Demolition","Excess Asset"
2485,"43.33595","-115.48217","Agriculture","Forest Service","BOISE NATIONAL FOREST","Mountain Home","Idaho",83647,"Building","Industrial","F23430010312","Demolition","Excess Asset"
2489,"48.86097222","-117.00122222","Agriculture","Forest Service","IPF","Bonners Ferry","Idaho",83805,"Building","All Other","F6931010359","Demolition","Excess Asset"
2499,"45.6039","-116.4174","Agriculture","Forest Service","WALLOWA WHITMAN NF","LUCILE","Idaho",83542,"Building","Dormitories/Barracks","F1979.005421","Demolition","Excess Asset"
2500,"45.4129","-116.3278","Agriculture","Forest Service","WALLOWA WHITMAN NF","RIGGINS","Idaho",83549,"Building","All Other","F2024.005421","Demolition","Excess Asset"
2501,"46.93041171","-116.91064695","Agriculture","Forest Service","CLEARWATER NF","POTLATCH","Idaho",83855,"Building","All Other","F2274.000411","Demolition","Excess Asset"
2502,"45.6365985","-116.4695999","Agriculture","Forest Service","WALLOWA WHITMAN NF","LUCILE","Idaho",83542,"Building","Service","F2370.005421","Demolition","Excess Asset"
2503,"43.8117","-115.3636","Agriculture","Forest Service","BOISE NATIONAL FOREST","FEATHERVILLE","Idaho",83601,"Building","Service","F3081010312","Demolition","Excess Asset"
2504,"43.834614","-115.84261","Agriculture","Forest Service","BOISE NATIONAL FOREST","IDAHO CITY","Idaho",83631,"Building","All Other","F3084010312","Demolition","Excess Asset"
2505,"43.834614","-115.84261","Agriculture","Forest Service","BOISE NATIONAL FOREST","IDAHO CITY","Idaho",83631,"Building","All Other","F3092010312","Demolition","Excess Asset"
2506,"44.528781","-115.979574","Agriculture","Forest Service","BOISE NATIONAL FOREST","CASCADE","Idaho",83611,"Building","Industrial","F3093010312","Demolition","Excess Asset"
2507,"43.829867","-115.83516","Agriculture","Forest Service","BOISE NATIONAL FOREST","IDAHO CITY","Idaho",83631,"Building","Dormitories/Barracks","F3976.002731","Demolition","Excess Asset"
2508,"43.829867","-115.83516","Agriculture","Forest Service","BOISE NATIONAL FOREST","IDAHO CITY","Idaho",83631,"Building","Dormitories/Barracks","F3984.002731","Demolition","Excess Asset"
2509,"43.829867","-115.83516","Agriculture","Forest Service","BOISE NATIONAL FOREST","IDAHO CITY","Idaho",83631,"Building","Dormitories/Barracks","F3986.002731","Demolition","Excess Asset"
2510,"43.829867","-115.83516","Agriculture","Forest Service","BOISE NATIONAL FOREST","IDAHO CITY","Idaho",83631,"Building","Dormitories/Barracks","F3989.002731","Demolition","Excess Asset"
2511,"44.074065","-115.591495","Agriculture","Forest Service","BOISE NATIONAL FOREST","LOWMAN","Idaho",83637,"Building","Dormitories/Barracks","F4073.002731","Demolition","Excess Asset"
2512,"44.074065","-115.591495","Agriculture","Forest Service","BOISE NATIONAL FOREST","LOWMAN","Idaho",83637,"Building","Dormitories/Barracks","F4078.002731","Demolition","Excess Asset"
2513,"43.829867","-115.83516","Agriculture","Forest Service","BOISE NATIONAL FOREST","IDAHO CITY","Idaho",83631,"Building","Dormitories/Barracks","F4082.002731","Demolition","Excess Asset"
2514,"44.37318","-116.30188","Agriculture","Forest Service","BOISE NATIONAL FOREST","OLA","Idaho",83657,"Building","All Other","F4185.002731","Demolition","Excess Asset"
2515,"43.8117","-115.3636","Agriculture","Forest Service","BOISE NATIONAL FOREST","FEATHERVILLE","Idaho",83601,"Building","All Other","F4284.002731","Demolition","Excess Asset"
2516,"43.8117","-115.3636","Agriculture","Forest Service","BOISE NATIONAL FOREST","FEATHERVILLE","Idaho",83601,"Building","All Other","F4344.002731","Demolition","Excess Asset"
2517,"45.6424","-116.3807","Agriculture","Forest Service","NEZ PERCE NATIONAL FOREST","LUCILE","Idaho",83542,"Building","All Other","F4478010277","Demolition","Excess Asset"
2518,"45.5985","-116.1338","Agriculture","Forest Service","NEZ PERCE NATIONAL FOREST","LUCILE","Idaho",83542,"Building","All Other","F4597010277","Demolition","Excess Asset"
2519,"45.5985","-116.1338","Agriculture","Forest Service","NEZ PERCE NATIONAL FOREST","LUCILE","Idaho",83542,"Building","All Other","F4598010277","Demolition","Excess Asset"
2520,"46.093","-115.5368","Agriculture","Forest Service","NEZ PERCE NATIONAL FOREST","ELK CITY","Idaho",83525,"Building","Family Housing","F46804010277","Demolition","Excess Asset"
2521,"45.02038004","-116.43298003","Agriculture","Forest Service","PAYETTE NATIONAL FOREST","NEW MEADOWS","Idaho",83654,"Building","Service","F4690010444","Demolition","Excess Asset"
2522,"44.074065","-115.591495","Agriculture","Forest Service","BOISE NATIONAL FOREST","LOWMAN","Idaho",83637,"Building","All Other","F5559.002731","Demolition","Excess Asset"
2523,"43.820724","-115.850942","Agriculture","Forest Service","BOISE NATIONAL FOREST","IDAHO CITY","Idaho",83631,"Building","All Other","F6921010312","Demolition","Excess Asset"
2524,"43.829867","-115.83516","Agriculture","Forest Service","BOISE NATIONAL FOREST","IDAHO CITY","Idaho",83631,"Building","All Other","F7352010312","Demolition","Excess Asset"
2525,"43.829867","-115.83516","Agriculture","Forest Service","BOISE NATIONAL FOREST","IDAHO CITY","Idaho",83631,"Building","All Other","F7355010312","Demolition","Excess Asset"
2526,"43.829867","-115.83516","Agriculture","Forest Service","BOISE NATIONAL FOREST","IDAHO CITY","Idaho",83631,"Building","All Other","F7356010312","Demolition","Excess Asset"
2527,"43.829867","-115.83516","Agriculture","Forest Service","BOISE NATIONAL FOREST","IDAHO CITY","Idaho",83631,"Building","All Other","F7360010312","Demolition","Excess Asset"
2528,"43.829867","-115.83516","Agriculture","Forest Service","BOISE NATIONAL FOREST","IDAHO CITY","Idaho",83631,"Building","All Other","F7361010312","Demolition","Excess Asset"
2529,"43.829867","-115.83516","Agriculture","Forest Service","BOISE NATIONAL FOREST","IDAHO CITY","Idaho",83631,"Building","All Other","F7362010312","Demolition","Excess Asset"
2530,"43.829867","-115.83516","Agriculture","Forest Service","BOISE NATIONAL FOREST","IDAHO CITY","Idaho",83631,"Building","All Other","F7367010312","Demolition","Excess Asset"
2531,"43.829867","-115.83516","Agriculture","Forest Service","BOISE NATIONAL FOREST","IDAHO CITY","Idaho",83631,"Building","All Other","F7368010312","Demolition","Excess Asset"
2825,"41.36903317","-88.03420963","Agriculture","Forest Service","MIDEWIN NTP","SYMERTON","Illinois",60481,"Building","All Other","F151010459","Demolition","Excess Asset"
2826,"41.36902154","-88.0324951","Agriculture","Forest Service","MIDEWIN NTP","SYMERTON","Illinois",60481,"Building","All Other","F174010459","Demolition","Excess Asset"
2827,"41.3690288","-88.02917152","Agriculture","Forest Service","MIDEWIN NTP","SYMERTON","Illinois",60481,"Building","All Other","F204010459","Demolition","Excess Asset"
2828,"41.35868478","-88.08780931","Agriculture","Forest Service","MIDEWIN NTP","SYMERTON","Illinois",60481,"Building","Warehouses","F343010459","Demolition","Excess Asset"
2829,"41.3689697","-88.15408429","Agriculture","Forest Service","MIDEWIN NTP","ELWOOD","Illinois",60481,"Building","All Other","F458010459","Demolition","Excess Asset"
2830,"41.366818","-88.15262866","Agriculture","Forest Service","MIDEWIN NTP","ELWOOD","Illinois",60481,"Building","All Other","F474010459","Demolition","Excess Asset"
2831,"41.3580143","-88.15387054","Agriculture","Forest Service","MIDEWIN NTP","WILMINGTON","Illinois",60481,"Building","All Other","F480010459","Demolition","Excess Asset"
2832,"41.36893125","-88.08627196","Agriculture","Forest Service","MIDEWIN NTP","ELWOOD","Illinois",60481,"Building","All Other","F548010459","Demolition","Excess Asset"
2833,"41.35724539","-88.0383757","Agriculture","Forest Service","MIDEWIN NTP","SYMERTON","Illinois",60481,"Building","Service","F555010459","Demolition","Excess Asset"
2834,"41.35549805","-88.04284622","Agriculture","Forest Service","MIDEWIN NTP","SYMERTON","Illinois",60481,"Building","Service","F556010459","Demolition","Excess Asset"
2835,"41.36035562","-88.04256623","Agriculture","Forest Service","MIDEWIN NTP","SYMERTON","Illinois",60481,"Building","Service","F557010459","Demolition","Excess Asset"
2836,"41.34218023","-88.13220911","Agriculture","Forest Service","MIDEWIN NTP","WILMINGTON","Illinois",60481,"Building","Industrial","F578099","Demolition","Excess Asset"
2837,"41.34218023","-88.13220911","Agriculture","Forest Service","MIDEWIN NTP","WILMINGTON","Illinois",60481,"Building","All Other","F578103","Demolition","Excess Asset"
2838,"41.34218023","-88.13220911","Agriculture","Forest Service","MIDEWIN NTP","WILMINGTON","Illinois",60481,"Building","Warehouses","F578115","Demolition","Excess Asset"
2839,"41.35783007","-88.08388542","Agriculture","Forest Service","MIDEWIN NTP","SYMERTON","Illinois",60481,"Building","Service","F578121","Demolition","Excess Asset"
2840,"41.35786212","-88.08335133","Agriculture","Forest Service","MIDEWIN NTP","SYMERTON","Illinois",60481,"Building","All Other","F578283","Demolition","Excess Asset"
2841,"41.34218023","-88.13220911","Agriculture","Forest Service","MIDEWIN NTP","WILMINGTON","Illinois",60481,"Building","All Other","F578387","Demolition","Excess Asset"
2842,"41.34218023","-88.13220911","Agriculture","Forest Service","MIDEWIN NTP","WILMINGTON","Illinois",60481,"Building","All Other","F578421","Demolition","Excess Asset"
3473,"36.76658","-88.050833","Agriculture","Forest Service","LAND BETWEEN THE LAKES NRA - KENTUCKY","CANTON","Kentucky",42211,"Building","All Other","F386010663","Demolition","Excess Asset"
3474,"36.76661862","-88.05071067","Agriculture","Forest Service","LAND BETWEEN THE LAKES NRA - KENTUCKY","CANTON","Kentucky",42211,"Building","All Other","F387010663","Demolition","Excess Asset"
3514,"31.20236111","-91.69619444","Agriculture","Forest Service","NF IN MISSISSIPPI","BIG BEND","Louisiana",71351,"Building","Service","F1517.006251","Demolition","Excess Asset"
3549,"44.39764254","-70.93243044","Agriculture","Forest Service","WHITE MOUNTAIN NF ME","GILEAD","Maine",4217,"Building","Family Housing","F1121.007961","Demolition","Excess Asset"
3550,"44.411663","-70.797027","Agriculture","Forest Service","WHITE MOUNTAIN NF ME","BETHEL","Maine",4217,"Building","All Other","F1657.007961","Demolition","Excess Asset"
3551,"44.39611872","-70.93112268","Agriculture","Forest Service","WHITE MOUNTAIN NF ME","GILEAD","Maine",4217,"Building","Industrial","F3169010566","Demolition","Excess Asset"
3552,"44.39718767","-70.93142972","Agriculture","Forest Service","WHITE MOUNTAIN NF ME","GILEAD","Maine",4217,"Building","Service","F3170010566","Demolition","Excess Asset"
3553,"44.39700572","-70.9317595","Agriculture","Forest Service","WHITE MOUNTAIN NF ME","GILEAD","Maine",4217,"Building","Service","F3171010566","Demolition","Excess Asset"
3554,"44.39748903","-70.93171401","Agriculture","Forest Service","WHITE MOUNTAIN NF ME","GILEAD","Maine",4217,"Building","All Other","F3544010566","Demolition","Excess Asset"
3615,"46.210132","-86.627683","Agriculture","Forest Service","HIAWATHA NATIONAL FOREST","WETMORE","Michigan",49895,"Building","Service","F1071.007671","Demolition","Excess Asset"
3616,"45.994981","-84.83343","Agriculture","Forest Service","HIAWATHA NATIONAL FOREST","MORAN","Michigan",49781,"Building","Warehouses","F1116.007671","Demolition","Excess Asset"
3617,"46.359413","-84.787073","Agriculture","Forest Service","HIAWATHA NATIONAL FOREST","BRIMLEY","Michigan",49752,"Building","Service","F2701.007671","Demolition","Excess Asset"
3995,"31.26688889","-91.19502777","Agriculture","Forest Service","NF IN MISSISSIPPI","Hazlehurst","Mississippi",39633,"Building","Service","F1936.006251","Demolition","Excess Asset"
4017,"33.9597","-88.9177","Agriculture","Forest Service","NF IN MISSISSIPPI","HOUSTON","Mississippi",38851,"Building","Service","F3962.006251","Demolition","Excess Asset"
4018,"31.0836","-89.0537","Agriculture","Forest Service","NF IN MISSISSIPPI","NEW AUGUSTA","Mississippi",39462,"Building","All Other","F4463.006251","Demolition","Excess Asset"
4019,"34.00168333","-89.79532611","Agriculture","Forest Service","NF IN MISSISSIPPI","TILLATOBA","Mississippi",38922,"Building","Communications Systems","F463010455","Demolition","Excess Asset"
4020,"34.00149361","-89.79527333","Agriculture","Forest Service","NF IN MISSISSIPPI","TILLATOBA","Mississippi",38922,"Building","Service","F464010455","Demolition","Excess Asset"
4051,"31.0849","-89.0528","Agriculture","Forest Service","NF IN MISSISSIPPI","NEW AUGUSTA","Mississippi",39462,"Building","Service","F3639.006251","Demolition","New Excess Asset Identified in 2010"
4052,"30.6892","-89.0647","Agriculture","Forest Service","NF IN MISSISSIPPI","MCHENRY","Mississippi",39573,"Building","Service","F1460.006251","Demolition","New Excess Asset Identified in 2010"
4104,"37.56805556","-90.28222223","Agriculture","Forest Service","MARK TWAIN NATIONAL FOREST","JUNCTION CITY","Missouri",63645,"Building","Office","F1069.007271","Demolition","Excess Asset"
4105,"37.56805556","-90.28222223","Agriculture","Forest Service","MARK TWAIN NATIONAL FOREST","JUNCTION CITY","Missouri",63645,"Building","Office","F1070.007271","Demolition","Excess Asset"
4106,"37.53541666","-92.12583334","Agriculture","Forest Service","MARK TWAIN NATIONAL FOREST","ROBY","Missouri",65552,"Building","All Other","F1116.007271","Demolition","Excess Asset"
4107,"37.77261111","-91.10333333","Agriculture","Forest Service","MARK TWAIN NATIONAL FOREST","DAVISVILLE","Missouri",65456,"Building","All Other","F1200.007271","Demolition","Excess Asset"
4108,"37.93961111","-90.79527777","Agriculture","Forest Service","MARK TWAIN NATIONAL FOREST","POTOSI","Missouri",63664,"Building","All Other","F1203.007271","Demolition","Excess Asset"
4109,"36.78305556","-90.41944445","Agriculture","Forest Service","MARK TWAIN NATIONAL FOREST","POPLAR BLUFF","Missouri",63901,"Building","All Other","F1210.007271","Demolition","Excess Asset"
4110,"36.88894444","-91.0225","Agriculture","Forest Service","MARK TWAIN NATIONAL FOREST","VAN BUREN","Missouri",63965,"Building","Service","F1257.007271","Demolition","Excess Asset"
4111,"36.89902777","-91.44305555","Agriculture","Forest Service","MARK TWAIN NATIONAL FOREST","BIRCH TREE","Missouri",65438,"Building","Service","F1263.007271","Demolition","Excess Asset"
4112,"36.8725","-90.40388889","Agriculture","Forest Service","MARK TWAIN NATIONAL FOREST","POPLAR BLUFF","Missouri",63901,"Building","Service","F1270.007271","Demolition","Excess Asset"
4113,"36.97083334","-90.5475","Agriculture","Forest Service","MARK TWAIN NATIONAL FOREST","WILLIAMSVILLE","Missouri",63967,"Building","Service","F1271.007271","Demolition","Excess Asset"
4114,"37.77261111","-91.10333333","Agriculture","Forest Service","MARK TWAIN NATIONAL FOREST","DAVISVILLE","Missouri",65456,"Building","Service","F303134010602","Demolition","Excess Asset"
4162,"36.83591666","-91.19861111","Agriculture","Forest Service","MARK TWAIN NATIONAL FOREST","FREMONT","Missouri",63941,"Building","Service","F525560010602","Demolition","New Excess Asset Identified in 2010"
4163,"36.7025","-93.61","Agriculture","Forest Service","MARK TWAIN NATIONAL FOREST","SHELL KNOB","Missouri",65605,"Building","Service","F1278.007271","Demolition","New Excess Asset Identified in 2010"
4164,"36.66611111","-93.71","Agriculture","Forest Service","MARK TWAIN NATIONAL FOREST","SHELL KNOB","Missouri",65625,"Building","Service","F1277.007271","Demolition","New Excess Asset Identified in 2010"
4165,"36.52833334","-93.835","Agriculture","Forest Service","MARK TWAIN NATIONAL FOREST","EAGLE ROCK","Missouri",65745,"Building","Service","F1279.007271","Demolition","New Excess Asset Identified in 2010"
4166,"36.9525","-92.11222222","Agriculture","Forest Service","MARK TWAIN NATIONAL FOREST","VANZANT","Missouri",65768,"Building","Service","F1260.007271","Demolition","New Excess Asset Identified in 2010"
4210,"45.18268791","-108.42890051","Agriculture","Forest Service","CUSTER NATIONAL FOREST","Bridger","Montana",59014,"Building","All Other","F1137.000471","Demolition","Excess Asset"
4211,"45.0903276","-108.43928392","Agriculture","Forest Service","CUSTER NATIONAL FOREST","Bridger","Montana",59014,"Building","Service","F60695010355","Demolition","Excess Asset"
4212,"45.18259251","-108.42897341","Agriculture","Forest Service","CUSTER NATIONAL FOREST","Bridger","Montana",59014,"Building","Service","F60731010355","Demolition","Excess Asset"
4215,"45.0212851","-109.27773187","Agriculture","Forest Service","CUSTER NATIONAL FOREST","Red Lodge","Montana",59068,"Building","Service","F60691010355","Demolition","Excess Asset"
4219,"47.86890239","-112.6400675","Agriculture","Forest Service","LEWIS & CLARK NF","Choteau","Montana",59422,"Building","All Other","F2774.000851","Demolition","Excess Asset"
4220,"47.86886231","-112.6399694","Agriculture","Forest Service","LEWIS & CLARK NF","Choteau","Montana",59422,"Building","All Other","F2775.000851","Demolition","Excess Asset"
4221,"47.86894878","-112.6401394","Agriculture","Forest Service","LEWIS & CLARK NF","Choteau","Montana",59422,"Building","Service","F4289010344","Demolition","Excess Asset"
4222,"47.6245914","-112.738055","Agriculture","Forest Service","LEWIS & CLARK NF","Choteau","Montana",59422,"Building","Service","F4297010344","Demolition","Excess Asset"
4226,"46.73564547","-110.8499632","Agriculture","Forest Service","LEWIS & CLARK NF","White Sulphur Springs","Montana",59645,"Building","Service","F4162010344","Demolition","Excess Asset"
4231,"46.92425556","-114.09315277","Agriculture","Forest Service","AERIAL FIRE DEPOT","Missoula","Montana",59808,"Building","All Other","F5272.000171","Demolition","Excess Asset"
4232,"46.92425556","-114.09315277","Agriculture","Forest Service","AERIAL FIRE DEPOT","Missoula","Montana",59808,"Building","All Other","F5273.000171","Demolition","Excess Asset"
4239,"47.5978749","-115.22772566","Agriculture","Forest Service","LOLO NATIONAL FOREST","Thompson Falls","Montana",59873,"Building","All Other","F1165.000911","Demolition","Excess Asset"
4240,"47.59638465","-115.22847851","Agriculture","Forest Service","LOLO NATIONAL FOREST","Thompson Falls","Montana",59873,"Building","All Other","F2330.000911","Demolition","Excess Asset"
4255,"48.907667","-115.66045","Agriculture","Forest Service","KOOTENAI NATIONAL FOREST","Troy","Montana",59935,"Building","Industrial","F1639.000781","Demolition","Excess Asset"
4261,"46.58708333","-112.0042222","Agriculture","Forest Service","HELENA NATIONAL FOREST","HELENA","Montana",59601,"Building","All Other","F1018.000741","Demolition","Excess Asset"
4262,"46.60213889","-112.0043611","Agriculture","Forest Service","HELENA NATIONAL FOREST","HELENA","Montana",59601,"Building","All Other","F1020.000741","Demolition","Excess Asset"
4263,"47.46507142","-114.88111349","Agriculture","Forest Service","LOLO NATIONAL FOREST","PLAINS","Montana",59859,"Building","All Other","F1163.000911","Demolition","Excess Asset"
4264,"45.816076","-114.260417","Agriculture","Forest Service","BITTERROOT NATIONAL FOREST","CONNER","Montana",59829,"Building","All Other","F12554010374","Demolition","Excess Asset"
4265,"47.16023577","-113.05447766","Agriculture","Forest Service","LOLO NATIONAL FOREST","OVANDO","Montana",59854,"Building","Service","F1318.000911","Demolition","Excess Asset"
4266,"47.58443","-113.73605","Agriculture","Forest Service","FLATHEAD NATIONAL FOREST","CONDON","Montana",59826,"Building","All Other","F1389.000621","Demolition","Excess Asset"
4267,"47.58432","-113.73659","Agriculture","Forest Service","FLATHEAD NATIONAL FOREST","CONDON","Montana",59826,"Building","All Other","F1390.000621","Demolition","Excess Asset"
4268,"48.35454","-115.03818","Agriculture","Forest Service","KOOTENAI NATIONAL FOREST","WARLAND","Montana",59923,"Building","Warehouses","F1621.000781","Demolition","Excess Asset"
4269,"45.81941","-113.954684","Agriculture","Forest Service","BITTERROOT NATIONAL FOREST","SULA","Montana",59871,"Building","All Other","F1799.000271","Demolition","Excess Asset"
4271,"47.60117254","-115.34130455","Agriculture","Forest Service","LOLO NATIONAL FOREST","THOMPSON FALLS","Montana",59873,"Building","All Other","F2327.000911","Demolition","Excess Asset"
4272,"46.32476667","-111.49812777","Agriculture","Forest Service","HELENA NATIONAL FOREST","TOWNSEND","Montana",59644,"Building","Industrial","F24943010347","Demolition","Excess Asset"
4273,"47.46361906","-112.7134114","Agriculture","Forest Service","LEWIS & CLARK NF","AUGUSTA","Montana",59410,"Building","Dormitories/Barracks","F2748.000851","Demolition","Excess Asset"
4274,"47.47819467","-110.61049","Agriculture","Forest Service","LEWIS & CLARK NF","SHONKIN","Montana",59450,"Building","All Other","F2769.000851","Demolition","Excess Asset"
4275,"47.0095051","-110.7686401","Agriculture","Forest Service","LEWIS & CLARK NF","NEIHART","Montana",59465,"Building","All Other","F2797.000851","Demolition","Excess Asset"
4276,"47.15628236","-110.2221022","Agriculture","Forest Service","LEWIS & CLARK NF","STANFORD","Montana",59479,"Building","Family Housing","F2824.000851","Demolition","Excess Asset"
4277,"46.33877777","-112.29152777","Agriculture","Forest Service","BVD-DRLG NATIONAL FOREST","BASIN","Montana",59634,"Building","Service","F299484010602","Demolition","Excess Asset"
4278,"48.38235","-114.05508","Agriculture","Forest Service","FLATHEAD NATIONAL FOREST","HUNGRY HORSE","Montana",59901,"Building","All Other","F38235010259","Demolition","Excess Asset"
4279,"47.1560234","-110.2230336","Agriculture","Forest Service","LEWIS & CLARK NF","STANFORD","Montana",59479,"Building","All Other","F3927010344","Demolition","Excess Asset"
4280,"48.88401389","-115.51890556","Agriculture","Forest Service","KOOTENAI NATIONAL FOREST","REXFORD","Montana",59935,"Building","Service","F40207010264","Demolition","Excess Asset"
4281,"46.43859434","-109.850503","Agriculture","Forest Service","LEWIS & CLARK NF","HARLOWTON","Montana",59085,"Building","All Other","F4152010344","Demolition","Excess Asset"
4282,"47.00961908","-110.7684881","Agriculture","Forest Service","LEWIS & CLARK NF","NEIHART","Montana",59465,"Building","All Other","F4159010344","Demolition","Excess Asset"
4283,"47.46378721","-112.7135999","Agriculture","Forest Service","LEWIS & CLARK NF","AUGUSTA","Montana",59410,"Building","Service","F4291010344","Demolition","Excess Asset"
4284,"47.33910778","-112.5648439","Agriculture","Forest Service","LEWIS & CLARK NF","AUGUSTA","Montana",59410,"Building","Service","F4456010344","Demolition","Excess Asset"
4285,"45.17320237","-109.43477905","Agriculture","Forest Service","CUSTER NATIONAL FOREST","LUTHER","Montana",59068,"Structure","Roads and Bridges","S61493010355","Demolition","Excess Asset"
4425,"41.90300374","-100.31174385","Agriculture","Forest Service","NEBRASKA & MCKELVIE NF'S","HALSEY","Nebraska",69142,"Building","All Other","F1753.001341","Demolition","Excess Asset"
4426,"42.69107431","-101.14320315","Agriculture","Forest Service","NEBRASKA & MCKELVIE NF'S","NENZEL","Nebraska",69201,"Building","All Other","F1764.001341","Demolition","Excess Asset"
4427,"42.69087375","-101.14407652","Agriculture","Forest Service","NEBRASKA & MCKELVIE NF'S","NENZEL","Nebraska",69201,"Building","All Other","F1772.001341","Demolition","Excess Asset"
4428,"42.69081032","-101.1434925","Agriculture","Forest Service","NEBRASKA & MCKELVIE NF'S","NENZEL","Nebraska",69201,"Building","All Other","F1773.001341","Demolition","Excess Asset"
4429,"41.90224716","-100.30620742","Agriculture","Forest Service","NEBRASKA & MCKELVIE NF'S","HALSEY","Nebraska",69142,"Building","Office","F1782.001341","Demolition","Excess Asset"
4430,"42.69149206","-101.14379398","Agriculture","Forest Service","NEBRASKA & MCKELVIE NF'S","NENZEL","Nebraska",69201,"Building","All Other","F2207.001341","Demolition","Excess Asset"
4479,"41.11230447","-114.97317148","Agriculture","Forest Service","HUMBOLDT NATIONAL FOREST","WELLS","Nevada",89835,"Building","All Other","F1066.003031","Demolition","Excess Asset"
4480,"39.001545","-119.759253","Agriculture","Forest Service","TOIYABE NATIONAL FOREST","MINDEN","Nevada",89423,"Building","All Other","F1198.003341","Demolition","Excess Asset"
4481,"39.001451","-119.759313","Agriculture","Forest Service","TOIYABE NATIONAL FOREST","MINDEN","Nevada",89423,"Building","All Other","F1199.003341","Demolition","Excess Asset"
4482,"39.5027406","-117.08140942","Agriculture","Forest Service","TOIYABE NATIONAL FOREST","AUSTIN","Nevada",89310,"Building","Industrial","F1227.003341","Demolition","Excess Asset"
4483,"39.5027406","-117.08140942","Agriculture","Forest Service","TOIYABE NATIONAL FOREST","AUSTIN","Nevada",89310,"Building","Family Housing","F1239.003341","Demolition","Excess Asset"
4484,"39.5027406","-117.08140942","Agriculture","Forest Service","TOIYABE NATIONAL FOREST","AUSTIN","Nevada",89310,"Building","All Other","F1240.003341","Demolition","Excess Asset"
4485,"39.00155","-119.75908","Agriculture","Forest Service","TOIYABE NATIONAL FOREST","MINDEN","Nevada",89423,"Building","All Other","F1295.003341","Demolition","Excess Asset"
4486,"39.152774","-119.767742","Agriculture","Forest Service","TOIYABE NATIONAL FOREST","CARSON CITY","Nevada",89703,"Building","All Other","F20317010386","Demolition","Excess Asset"
4487,"39.11978847","-117.27407294","Agriculture","Forest Service","TOIYABE NATIONAL FOREST","Round Mountain","Nevada",89045,"Building","Service","F9785010386","Demolition","Excess Asset"
4489,"38.05699444","-115.66085556","Agriculture","Forest Service","HUMBOLDT NATIONAL FOREST","Tonopah","Nevada",89049,"Building","Service","F16364010386","Demolition","Excess Asset"
4491,"38.443446","-116.793819","Agriculture","Forest Service","TOIYABE NATIONAL FOREST","Tonopah","Nevada",89049,"Building","Service","F1272.003341","Demolition","Excess Asset"
4492,"38.631952","-116.582751","Agriculture","Forest Service","TOIYABE NATIONAL FOREST","Tonopah","Nevada",89049,"Building","Service","F15875010386","Demolition","Excess Asset"
4494,"38.754434","-114.308875","Agriculture","Forest Service","HUMBOLDT NATIONAL FOREST","Baker","Nevada",89311,"Building","Service","F16366010386","Demolition","Excess Asset"
4499,"39.5027406","-117.08140942","Agriculture","Forest Service","TOIYABE NATIONAL FOREST","AUSTIN","Nevada",89310,"Building","All Other","F63010386","Demolition","Excess Asset"
4502,"38.789655","-117.390036","Agriculture","Forest Service","TOIYABE NATIONAL FOREST","Gabbs","Nevada",89409,"Building","Service","F1258.003341","Demolition","Excess Asset"
4503,"38.676497","-117.500109","Agriculture","Forest Service","TOIYABE NATIONAL FOREST","Gabbs","Nevada",89409,"Building","All Other","F1282.003341","Demolition","Excess Asset"
4511,"40.73195934","-115.22990708","Agriculture","Forest Service","BUES CANYON WORK STATION S&PF","Spring Creek","Nevada",89815,"Building","Service","F9778010386","Demolition","Excess Asset"
4517,"41.78833333","-117.55361111","Agriculture","Forest Service","HUMBOLDT NATIONAL FOREST","MCDERMITT","Nevada",89426,"Building","Communications Systems","F9696010386","Demolition","Excess Asset"
4518,"41.789045","-115.948756","Agriculture","Forest Service","HUMBOLDT NATIONAL FOREST","Mountain City","Nevada",89831,"Building","Industrial","F1021.003031","Demolition","Excess Asset"
4519,"41.789045","-115.948756","Agriculture","Forest Service","HUMBOLDT NATIONAL FOREST","Mountain City","Nevada",89831,"Building","All Other","F1025.003031","Demolition","Excess Asset"
4520,"41.750962","-115.6759622","Agriculture","Forest Service","HUMBOLDT NATIONAL FOREST","Mountain City","Nevada",89831,"Building","All Other","F1872.003031","Demolition","Excess Asset"
4522,"39.5027406","-117.0814094","Agriculture","Forest Service","TOIYABE NATIONAL FOREST","AUSTIN","Nevada",89310,"Structure","All Other","S5157.003341","Demolition","Excess Asset"
4593,"44.07569861","-71.28919187","Agriculture","Forest Service","WHITE MOUNTAIN NF NH","GLEN","New Hampshire",3812,"Building","Dormitories/Barracks","F1292.007961","Demolition","Excess Asset"
4594,"44.38609087","-71.18183665","Agriculture","Forest Service","WHITE MOUNTAIN NF NH","GORHAM","New Hampshire",3581,"Building","All Other","F2063.007961","Demolition","Excess Asset"
4595,"44.256541","-71.63366","Agriculture","Forest Service","WHITE MOUNTAIN NF NH","BETHLEHEM","New Hampshire",3574,"Building","Other Institutional Uses","F3548010566","Demolition","Excess Asset"
4990,"32.996","-105.71","Agriculture","Forest Service","LINCOLN NATIONAL FOREST","CLOUDCROFT","New Mexico",88317,"Building","All Other","F1746.002431","Demolition","Excess Asset"
4991,"35.1627","-107.8393","Agriculture","Forest Service","CIBOLA NATIONAL FOREST","GRANTS","New Mexico",87020,"Building","All Other","F2045.002071","Demolition","Excess Asset"
4992,"35.1627","-107.8393","Agriculture","Forest Service","CIBOLA NATIONAL FOREST","GRANTS","New Mexico",87020,"Building","All Other","F2047.002071","Demolition","Excess Asset"
4993,"35.3623","-108.5078","Agriculture","Forest Service","CIBOLA NATIONAL FOREST","FORT WINGATE","New Mexico",87301,"Building","Service","F2053.002071","Demolition","Excess Asset"
4994,"35.36380556","-108.50926944","Agriculture","Forest Service","CIBOLA NATIONAL FOREST","FORT WINGATE","New Mexico",87301,"Building","All Other","F2055.002071","Demolition","Excess Asset"
4995,"35.1673","-108.1475","Agriculture","Forest Service","CIBOLA NATIONAL FOREST","BLUEWATER","New Mexico",87005,"Building","All Other","F2061.002071","Demolition","Excess Asset"
4996,"35.1673","-108.1475","Agriculture","Forest Service","CIBOLA NATIONAL FOREST","BLUEWATER","New Mexico",87005,"Building","Service","F2062.002071","Demolition","Excess Asset"
4997,"35.201894","-107.719507","Agriculture","Forest Service","CIBOLA NATIONAL FOREST","MCCARTYS","New Mexico",87020,"Building","Industrial","F2066.002071","Demolition","Excess Asset"
4998,"36.4679","-103.1262","Agriculture","Forest Service","CIBOLA","CLAYTON","New Mexico",88415,"Building","Industrial","F2310.002071","Demolition","Excess Asset"
4999,"34.0783","-107.1468","Agriculture","Forest Service","CIBOLA NATIONAL FOREST","MAGDALENA","New Mexico",87825,"Building","Family Housing","F2729.002071","Demolition","Excess Asset"
5000,"35.0739","-106.3839","Agriculture","Forest Service","CIBOLA NATIONAL FOREST","TIJERAS","New Mexico",87059,"Building","Industrial","F30095010482","Demolition","Excess Asset"
5001,"35.2389","-107.7011","Agriculture","Forest Service","CIBOLA NATIONAL FOREST","SAN MATEO","New Mexico",87020,"Building","Service","F30121010482","Demolition","Excess Asset"
5003,"35.56900734","-105.47401755","Agriculture","Forest Service","SANTA FE NATIONAL FOREST","Pecos","New Mexico",87552,"Building","Service","F1403.002531","Demolition","Excess Asset"
5005,"33.42386111","-108.11158333","Agriculture","Forest Service","GILA NATIONAL FOREST","Datil","New Mexico",87821,"Building","All Other","F1018.002291","Demolition","Excess Asset"
5007,"34.1816","-107.8834","Agriculture","Forest Service","CIBOLA NATIONAL FOREST","DATIL","New Mexico",87821,"Building","Industrial","F42317010482","Demolition","Excess Asset"
5011,"32.547","-105.035","Agriculture","Forest Service","LINCOLN NATIONAL FOREST","Roswell","New Mexico",88201,"Building","Family Housing","F1480.002431","Demolition","Excess Asset"
5012,"32.547","-105.035","Agriculture","Forest Service","LINCOLN NATIONAL FOREST","Roswell","New Mexico",88201,"Building","All Other","F1481.002431","Demolition","Excess Asset"
5013,"32.547","-105.035","Agriculture","Forest Service","LINCOLN NATIONAL FOREST","Roswell","New Mexico",88201,"Building","All Other","F1796.002431","Demolition","Excess Asset"
5014,"32.547","-105.035","Agriculture","Forest Service","LINCOLN NATIONAL FOREST","Roswell","New Mexico",88201,"Building","Service","F1797.002431","Demolition","Excess Asset"
5017,"36.03989828","-106.97179928","Agriculture","Forest Service","SANTA FE NATIONAL FOREST","CUBA","New Mexico",87013,"Building","All Other","F495044010602","Demolition","Excess Asset"
5018,"36.03989828","-106.97179928","Agriculture","Forest Service","SANTA FE NATIONAL FOREST","CUBA","New Mexico",87013,"Building","All Other","F495045010602","Demolition","Excess Asset"
5019,"35.88012331","-106.67634797","Agriculture","Forest Service","SANTA FE NATIONAL FOREST","JEMEZ SPRINGS","New Mexico",87025,"Building","All Other","F5001010418","Demolition","Excess Asset"
5021,"32.83834","-105.99597","Agriculture","Forest Service","LINCOLN NATIONAL FOREST","Alamogordo","New Mexico",88310,"Building","Communications Systems","F13385010413","Demolition","Excess Asset"
5373,"42.52804","-76.77841","Agriculture","Forest Service","FINGER LAKES NF","BURDETT","New York",14886,"Building","Service","F186010461","Demolition","New Excess Asset Identified in 2010"
5388,"35.76711111","-82.19313889","Agriculture","Forest Service","NF'S IN NORTH CAROLINA","Arden","North Carolina",28714,"Building","Service","F1062.006661","Demolition","Excess Asset"
5389,"35.76725","-82.19308333","Agriculture","Forest Service","NF'S IN NORTH CAROLINA","Arden","North Carolina",28714,"Building","All Other","F4138.006661","Demolition","Excess Asset"
5438,"35.61868611","-79.94570555","Agriculture","Forest Service","NF'S IN NORTH CAROLINA","ASHEBORO","North Carolina",27205,"Building","All Other","F4849.006661","Demolition","Excess Asset"
5439,"35.605","-79.94777777","Agriculture","Forest Service","NF'S IN NORTH CAROLINA","ASHEBORO","North Carolina",27205,"Building","Service","F4886.006661","Demolition","Excess Asset"
5440,"35.605","-79.94777777","Agriculture","Forest Service","NF'S IN NORTH CAROLINA","ASHEBORO","North Carolina",27205,"Building","All Other","F4888.006661","Demolition","Excess Asset"
5582,"47.53570555","-103.53331389","Agriculture","Forest Service","NORTH DAKOTA GRASSLANDS","RAWSON","North Dakota",58634,"Building","Service","F96793010355","Demolition","Excess Asset"
5601,"38.6025","-82.6325","Agriculture","Forest Service","WAYNE NF","Ironton","Ohio",45638,"Building","All Other","F57010307","Demolition","Excess Asset"
5708,"33.83676","-94.70832","Agriculture","Forest Service","OUACHITA NATIONAL FOREST","HAWORTH","Oklahoma",74745,"Building","Industrial","F1125.006441","Demolition","Excess Asset"
5709,"34.81139","-94.64239","Agriculture","Forest Service","OUACHITA NATIONAL FOREST","HEAVENER","Oklahoma",74937,"Building","Industrial","F2390010329","Demolition","Excess Asset"
5710,"35.6139","-99.6719","Agriculture","Forest Service","CIBOLA","CHEYENNE","Oklahoma",73628,"Building","All Other","F30106010482","Demolition","Excess Asset"
5801,"42.25143889","-121.79089722","Agriculture","Forest Service","WINEMA NATIONAL FOREST","KLAMATH FALLS","Oregon",97601,"Building","All Other","F1159.005651","Demolition","Excess Asset"
5802,"43.703339","-124.105415","Agriculture","Forest Service","SIUSLAW NATIONAL FOREST","REEDSPORT","Oregon",97467,"Building","All Other","F1187.005251","Demolition","Excess Asset"
5803,"42.87833334","-124.06555556","Agriculture","Forest Service","SISKIYOU OREGON","POWERS","Oregon",97466,"Building","Service","F1210.005181","Demolition","Excess Asset"
5804,"42.540493","-122.566332","Agriculture","Forest Service","ROGUE RIVER NF - OREGON","BUTTE FALLS","Oregon",97522,"Building","All Other","F1249.005121","Demolition","Excess Asset"
5805,"45.3425","-121.94116666","Agriculture","Forest Service","MT. HOOD NATIONAL FOREST","RHODODENDRON","Oregon",70,"Building","Family Housing","F1333.004901","Demolition","Excess Asset"
5806,"44.58333334","-118.62555556","Agriculture","Forest Service","MALHEUR NF","BATES","Oregon",97869,"Building","Service","F1334.004801","Demolition","Excess Asset"
5807,"45.34211111","-121.94041666","Agriculture","Forest Service","MT. HOOD NATIONAL FOREST","RHODODENDRON","Oregon",70,"Building","Industrial","F1380.004901","Demolition","Excess Asset"
5808,"42.57456667","-121.88308334","Agriculture","Forest Service","WINEMA NATIONAL FOREST","CHILOQUIN","Oregon",97624,"Building","Service","F1380.005651","Demolition","Excess Asset"
5809,"42.762927","-122.48883","Agriculture","Forest Service","ROGUE RIVER NF - OREGON","PROSPECT","Oregon",97536,"Building","All Other","F1381.005121","Demolition","Excess Asset"
5810,"44.996595","-118.933129","Agriculture","Forest Service","UMATILLA N.F. - OREGON","DALE","Oregon",97869,"Building","Industrial","F14292010616","Demolition","Excess Asset"
5811,"42.55","-124.05861111","Agriculture","Forest Service","SISKIYOU OREGON","AGNESS","Oregon",97406,"Building","Industrial","F1468.005181","Demolition","Excess Asset"
5812,"42.540384","-122.565461","Agriculture","Forest Service","ROGUE RIVER NF - OREGON","BUTTE FALLS","Oregon",97522,"Building","Service","F1555.005121","Demolition","Excess Asset"
5813,"42.762927","-122.48833","Agriculture","Forest Service","ROGUE RIVER NF - OREGON","PROSPECT","Oregon",97536,"Building","Service","F1598.005121","Demolition","Excess Asset"
5814,"42.21913056","-120.36347778","Agriculture","Forest Service","FREMONT NATIONAL FOREST","LAKEVIEW","Oregon",97630,"Building","All Other","F1600.004681","Demolition","Excess Asset"
5815,"44.82176","-118.64519","Agriculture","Forest Service","UMATILLA N.F. - OREGON","GRANITE","Oregon",97869,"Building","All Other","F1720.009091","Demolition","Excess Asset"
5816,"44.22515","-122.23474","Agriculture","Forest Service","FOREST SCIENCE LAB CORVALLIS","MCKENZIE BRIDGE","Oregon",97413,"Building","Dormitories/Barracks","F1793.004571","Demolition","Excess Asset"
5817,"45.41258333","-121.91144444","Agriculture","Forest Service","MT. HOOD NATIONAL FOREST","RHODODENDRON","Oregon",97049,"Building","Communications Systems","F1884.004901","Demolition","Excess Asset"
5818,"44.993793","-118.939721","Agriculture","Forest Service","UMATILLA N.F. - OREGON","DALE","Oregon",97856,"Building","Industrial","F1904.009091","Demolition","Excess Asset"
5819,"45.11419444","-121.52613889","Agriculture","Forest Service","MT. HOOD NATIONAL FOREST","SIMNASHO","Oregon",97037,"Building","Service","F2683010324","Demolition","Excess Asset"
5820,"45.11438889","-121.52594445","Agriculture","Forest Service","MT. HOOD NATIONAL FOREST","SIMNASHO","Oregon",97037,"Building","Other Institutional Uses","F3148.004901","Demolition","Excess Asset"
5821,"45.30242778","-122.26620833","Agriculture","Forest Service","MT. HOOD NATIONAL FOREST","ESTACADA","Oregon",97023,"Building","Industrial","F3311.004901","Demolition","Excess Asset"
5822,"43.4608","-121.6968","Agriculture","Forest Service","DESCHUTES NATIONAL FOREST","CRESCENT","Oregon",97733,"Building","Communications Systems","F3560.004621","Demolition","Excess Asset"
5823,"45.37153056","-117.7023","Agriculture","Forest Service","WALLOWA WHITMAN NF","COVE","Oregon",97883,"Building","Service","F472223010602","Demolition","Excess Asset"
5824,"44.6625","-118.93055556","Agriculture","Forest Service","MALHEUR NF","LONG CREEK","Oregon",97869,"Building","Service","F51709010620","Demolition","Excess Asset"
5825,"43.34411666","-122.73098611","Agriculture","Forest Service","UMPQUA NATIONAL FOREST","IDLEYLD PARK","Oregon",97447,"Building","Communications Systems","F5175.005371","Demolition","Excess Asset"
5826,"43.34411666","-122.73098611","Agriculture","Forest Service","UMPQUA NATIONAL FOREST","IDLEYLD PARK","Oregon",97447,"Building","Communications Systems","F5176.005371","Demolition","Excess Asset"
6065,"42.102925","-123.68085278","Agriculture","Forest Service","SISKIYOU OREGON","Cave Junction","Oregon",97523,"Building","Service","F6909010526","Demolition","Excess Asset"
6067,"42.15305556","-123.0538889","Agriculture","Forest Service","ROGUE RIVER NF - OREGON","Jacksonville","Oregon",97530,"Building","All Other","F1517.005121","Demolition","Excess Asset"
6076,"42.863964","-122.514872","Agriculture","Forest Service","ROGUE RIVER NF - OREGON","Prospect","Oregon",97536,"Building","Service","F57998010262","Demolition","Excess Asset"
6083,"42.44734722","-122.11831389","Agriculture","Forest Service","WINEMA NATIONAL FOREST","Klamath Falls","Oregon",97601,"Building","All Other","F1053.005651","Demolition","Excess Asset"
6086,"43.9829","-121.8061","Agriculture","Forest Service","DESCHUTES NATIONAL FOREST","La Pine","Oregon",97739,"Building","Service","F11046010467","Demolition","Excess Asset"
6103,"45.948","-117.611","Agriculture","Forest Service","UMATILLA N.F. - OREGON","Enterprise","Oregon",97828,"Building","Service","F21829010616","Demolition","Excess Asset"
6104,"45.945216","-117.618143","Agriculture","Forest Service","UMATILLA N.F. - OREGON","Enterprise","Oregon",97828,"Building","All Other","F23949010616","Demolition","Excess Asset"
6108,"44.859844","-117.0877982","Agriculture","Forest Service","WALLOWA WHITMAN NF","Halfway","Oregon",97834,"Building","Service","F1462.005421","Demolition","Excess Asset"
6115,"45.8376688","-117.1318999","Agriculture","Forest Service","WALLOWA WHITMAN NF","Imnaha","Oregon",97842,"Building","Service","F55151010263","Demolition","Excess Asset"
6116,"45.829","-117.04285277","Agriculture","Forest Service","WALLOWA WHITMAN NF","Imnaha","Oregon",97842,"Building","Service","F583116010602","Demolition","Excess Asset"
6117,"45.82983334","-117.04267777","Agriculture","Forest Service","WALLOWA WHITMAN NF","Imnaha","Oregon",97842,"Building","Service","F583132010602","Demolition","Excess Asset"
6131,"44.7114926","-118.491509","Agriculture","Forest Service","WALLOWA WHITMAN NF","Prairie City","Oregon",97869,"Building","Service","F2504.005421","Demolition","Excess Asset"
6132,"45.7808","-118.086","Agriculture","Forest Service","UMATILLA N.F. - OREGON","Weston","Oregon",97886,"Building","Industrial","F12005010616","Demolition","Excess Asset"
6133,"45.72995","-118.197449","Agriculture","Forest Service","UMATILLA N.F. - OREGON","Weston","Oregon",97886,"Building","All Other","F1676.009091","Demolition","Excess Asset"
6134,"45.730331","-118.195983","Agriculture","Forest Service","UMATILLA N.F. - OREGON","Weston","Oregon",97886,"Building","Service","F23960010616","Demolition","Excess Asset"
6152,"42.68027778","-123.94138889","Agriculture","Forest Service","SISKIYOU OREGON","AGNESS","Oregon",97406,"Building","Communications Systems","F1560.005181","Demolition","New Excess Asset Identified in 2010"
6153,"42.57661111","-121.88927777","Agriculture","Forest Service","WINEMA NATIONAL FOREST","CHILOQUIN","Oregon",97624,"Building","Communications Systems","F1117.005651","Demolition","New Excess Asset Identified in 2010"
6154,"42.57456667","-121.88308334","Agriculture","Forest Service","WINEMA NATIONAL FOREST","CHILOQUIN","Oregon",97624,"Building","All Other","F1312.005651","Demolition","New Excess Asset Identified in 2010"
6155,"42.57456667","-121.88308334","Agriculture","Forest Service","WINEMA NATIONAL FOREST","CHILOQUIN","Oregon",97624,"Building","All Other","F1314.005651","Demolition","New Excess Asset Identified in 2010"
6156,"43.22584445","-121.78849166","Agriculture","Forest Service","WINEMA NATIONAL FOREST","CHEMULT","Oregon",97731,"Building","All Other","F1394.005651","Demolition","New Excess Asset Identified in 2010"
6157,"43.30497222","-121.71669445","Agriculture","Forest Service","WINEMA NATIONAL FOREST","CHEMULT","Oregon",97737,"Building","Communications Systems","F1124.005651","Demolition","New Excess Asset Identified in 2010"
6237,"41.84269977","-79.25366321","Agriculture","Forest Service","ALLEGHENY NATIONAL FOREST","YOUNGSVILLE","Pennsylvania",16329,"Building","Family Housing","F1062.007791","Demolition","Excess Asset"
6238,"41.48726362","-79.10174852","Agriculture","Forest Service","ALLEGHENY NATIONAL FOREST","MARIENVILLE","Pennsylvania",16239,"Building","Communications Systems","F382010308","Demolition","Excess Asset"
6457,"34.42112","-81.57671","Agriculture","Forest Service","FRANCIS MARION & SUMTER","WHITMIRE","South Carolina",29178,"Building","Family Housing","F2068.006791","Demolition","Excess Asset"
6458,"33.16009","-79.83288","Agriculture","Forest Service","FRANCIS MARION & SUMTER","BETHERA","South Carolina",29434,"Building","Family Housing","F2119.006791","Demolition","Excess Asset"
6459,"34.08305","-82.36305","Agriculture","Forest Service","FRANCIS MARION & SUMTER","ABBEVILLE","South Carolina",29620,"Building","Service","F2188.006791","Demolition","Excess Asset"
6460,"34.4196","-81.57583","Agriculture","Forest Service","FRANCIS MARION & SUMTER","WHITMIRE","South Carolina",29178,"Building","All Other","F2217.006791","Demolition","Excess Asset"
6461,"33.15967","-79.83312","Agriculture","Forest Service","FRANCIS MARION & SUMTER","BETHERA","South Carolina",29434,"Building","Industrial","F2223.006791","Demolition","Excess Asset"
6462,"34.41978","-81.57674","Agriculture","Forest Service","FRANCIS MARION & SUMTER","WHITMIRE","South Carolina",29178,"Building","Service","F4355.006791","Demolition","Excess Asset"
6463,"33.16058","-79.83179","Agriculture","Forest Service","FRANCIS MARION & SUMTER","BETHERA","South Carolina",29434,"Building","All Other","F4386.006791","Demolition","Excess Asset"
6464,"33.16024","-79.8324","Agriculture","Forest Service","FRANCIS MARION & SUMTER","BETHERA","South Carolina",29434,"Building","All Other","F4388.006791","Demolition","Excess Asset"
6465,"33.15926","-79.83373","Agriculture","Forest Service","FRANCIS MARION & SUMTER","BETHERA","South Carolina",29434,"Building","All Other","F4390.006791","Demolition","Excess Asset"
6466,"33.15906","-79.83404","Agriculture","Forest Service","FRANCIS MARION & SUMTER","BETHERA","South Carolina",29434,"Building","All Other","F4392.006791","Demolition","Excess Asset"
6544,"33.1692","-79.70757","Agriculture","Forest Service","FRANCIS MARION & SUMTER","SHULERVILLE","South Carolina",29453,"Building","Communications Systems","F2134.006791","Demolition","New Excess Asset Identified in 2010"
6545,"33.09758","-79.46886","Agriculture","Forest Service","FRANCIS MARION & SUMTER","MCCLELLANVILLE","South Carolina",29458,"Building","Industrial","F1290010534","Demolition","New Excess Asset Identified in 2010"
6588,"44.05975549","-103.49725685","Agriculture","Forest Service","BLACK HILLS NATIONAL FOREST","SILVER CITY","South Dakota",57702,"Building","All Other","F3229.001101","Demolition","Excess Asset"
6589,"43.93997545","-103.55579951","Agriculture","Forest Service","BLACK HILLS NATIONAL FOREST","HILL CITY","South Dakota",57745,"Building","Dormitories/Barracks","F3299.001101","Demolition","Excess Asset"
6590,"44.10329906","-103.47548825","Agriculture","Forest Service","BLACK HILLS NATIONAL FOREST","SILVER CITY","South Dakota",57702,"Building","All Other","F47923010421","Demolition","Excess Asset"
6591,"43.77158973","-103.6106938","Agriculture","Forest Service","BLACK HILLS NATIONAL FOREST","CUSTER","South Dakota",57730,"Building","All Other","F55360010421","Demolition","Excess Asset"
6592,"43.93960595","-103.5572978","Agriculture","Forest Service","BLACK HILLS NATIONAL FOREST","HILL CITY","South Dakota",57745,"Building","Industrial","F60635010421","Demolition","Excess Asset"
6684,"35.35594444","-84.23161111","Agriculture","Forest Service","CHEROKEE NATIONAL FOREST","TELLICO PLAINS","Tennessee",37385,"Building","All Other","F3090.006041","Demolition","Excess Asset"
7023,"32.37735","-97.64378333","Agriculture","Forest Service","NATIONAL FORESTS IN TEXAS","Granbury","Texas",76049,"Building","Communications Systems","F7274010488","Demolition","Excess Asset"
7054,"33.39045555","-97.63860555","Agriculture","Forest Service","NATIONAL GRASSLANDS IN TEXAS","ALVORD","Texas",76225,"Building","All Other","F1085.006871","Demolition","Excess Asset"
7055,"33.39052222","-97.6395","Agriculture","Forest Service","NATIONAL GRASSLANDS IN TEXAS","ALVORD","Texas",76225,"Building","Industrial","F1090.006871","Demolition","Excess Asset"
7056,"31.275","-93.83594444","Agriculture","Forest Service","NATIONAL FORESTS IN TEXAS","HEMPHILL","Texas",75948,"Building","Office","F1106.006871","Demolition","Excess Asset"
7057,"30.55059722","-95.11805861","Agriculture","Forest Service","NATIONAL FORESTS IN TEXAS","COLDSPRING","Texas",77331,"Building","Industrial","F1202.006871","Demolition","Excess Asset"
7058,"31.39541805","-95.13848083","Agriculture","Forest Service","NATIONAL FORESTS IN TEXAS","RATCLIFF","Texas",75847,"Building","Service","F16097010488","Demolition","Excess Asset"
7059,"31.2885","-93.81333","Agriculture","Forest Service","NATIONAL GRASSLANDS IN TEXAS","HEMPHILL","Texas",75948,"Building","Service","F269736010602","Demolition","Excess Asset"
7060,"31.2885","-93.81333","Agriculture","Forest Service","NATIONAL GRASSLANDS IN TEXAS","HEMPHILL","Texas",75948,"Building","Communications Systems","F269747010602","Demolition","Excess Asset"
7061,"30.48792305","-95.15930556","Agriculture","Forest Service","NATIONAL FORESTS IN TEXAS","COLDSPRING","Texas",77331,"Building","Service","F3297.006871","Demolition","Excess Asset"
7062,"30.48783944","-95.15897472","Agriculture","Forest Service","NATIONAL FORESTS IN TEXAS","COLDSPRING","Texas",77331,"Building","All Other","F3299.006871","Demolition","Excess Asset"
7063,"30.48747805","-95.15951361","Agriculture","Forest Service","NATIONAL FORESTS IN TEXAS","COLDSPRING","Texas",77331,"Building","Service","F3303.006871","Demolition","Excess Asset"
7064,"31.30588","-94.29189","Agriculture","Forest Service","NATIONAL FORESTS IN TEXAS","BROADDUS","Texas",75929,"Building","Communications Systems","F7252010488","Demolition","Excess Asset"
7065,"31.27234778","-95.14484611","Agriculture","Forest Service","NATIONAL FORESTS IN TEXAS","KENNARD","Texas",75847,"Building","Communications Systems","F7272010488","Demolition","Excess Asset"
7066,"31.46738889","-93.83663889","Agriculture","Forest Service","NATIONAL FORESTS IN TEXAS","MILAM","Texas",75959,"Building","Communications Systems","F7273010488","Demolition","Excess Asset"
7238,"38.96293875","-112.33438916","Agriculture","Forest Service","FISHLAKE NF","FILLMORE","Utah",84631,"Building","All Other","F1068.002991","Demolition","Excess Asset"
7239,"37.92619292","-112.60744507","Agriculture","Forest Service","DIXIE NATIONAL FOREST","PARAGONAH","Utah",84760,"Building","All Other","F1106.002941","Demolition","Excess Asset"
7240,"39.21162481","-111.01249226","Agriculture","Forest Service","MANTI-LASAL NATIONAL FOREST","CASTLE DALE","Utah",84528,"Building","Family Housing","F1136.003091","Demolition","Excess Asset"
7241,"40.98731819","-109.72362007","Agriculture","Forest Service","ASHLEY NATIONAL FOREST","MANILA","Utah",84046,"Building","All Other","F1142.002691","Demolition","Excess Asset"
7242,"38.57457865","-109.5492934","Agriculture","Forest Service","MANTI-LASAL NATIONAL FOREST","MOAB","Utah",84532,"Building","All Other","F1177.003091","Demolition","Excess Asset"
7243,"40.28111801","-111.2410051","Agriculture","Forest Service","UINTA NATIONAL FOREST","WALLSBURG","Utah",84032,"Building","Service","F1224.003401","Demolition","Excess Asset"
7244,"40.93059725","-109.39929165","Agriculture","Forest Service","ASHLEY NATIONAL FOREST","MANILA","Utah",84023,"Building","All Other","F1232.002691","Demolition","Excess Asset"
7245,"40.93092803","-109.3999392","Agriculture","Forest Service","ASHLEY NATIONAL FOREST","MANILA","Utah",84023,"Building","Industrial","F1253.002691","Demolition","Excess Asset"
7246,"37.97014837","-111.83205136","Agriculture","Forest Service","DIXIE NATIONAL FOREST","ANTIMONY","Utah",84726,"Building","Service","F1257.002941","Demolition","Excess Asset"
7247,"37.97007","-111.83214851","Agriculture","Forest Service","DIXIE NATIONAL FOREST","ANTIMONY","Utah",84726,"Building","Service","F1258.002941","Demolition","Excess Asset"
7248,"40.62245348","-111.16044406","Agriculture","Forest Service","WASATCH N.F. (UTAH)","FRANCIS","Utah",84036,"Building","All Other","F1342.003441","Demolition","Excess Asset"
7249,"38.57422081","-109.54956835","Agriculture","Forest Service","MANTI-LASAL NATIONAL FOREST","MOAB","Utah",84532,"Building","All Other","F1476.003091","Demolition","Excess Asset"
7250,"40.93242971","-109.40228517","Agriculture","Forest Service","ASHLEY NATIONAL FOREST","MANILA","Utah",84023,"Building","Family Housing","F1630.002691","Demolition","Excess Asset"
7252,"40.7000156","-110.88877702","Agriculture","Forest Service","WASATCH N.F. (UTAH)","HANNA","Utah",84066,"Building","Service","F17151010498","Demolition","Excess Asset"
7253,"40.69981738","-110.88806299","Agriculture","Forest Service","WASATCH N.F. (UTAH)","HANNA","Utah",84066,"Building","All Other","F17202010498","Demolition","Excess Asset"
7255,"39.92692696","-110.67660622","Agriculture","Forest Service","ASHLEY NATIONAL FOREST","Duchesne","Utah",84021,"Building","Service","F9917010391","Demolition","Excess Asset"
7256,"40.48469134","-111.39637561","Agriculture","Forest Service","UINTA NATIONAL FOREST","Heber","Utah",84032,"Building","All Other","F1436.003401","Demolition","Excess Asset"
7257,"40.47753849","-111.39975418","Agriculture","Forest Service","UINTA NATIONAL FOREST","Heber","Utah",84032,"Building","All Other","F8242010422","Demolition","Excess Asset"
7260,"40.88659057","-110.83047742","Agriculture","Forest Service","WASATCH N.F. (UTAH)","Kamas","Utah",84036,"Building","Service","F1072.003441","Demolition","Excess Asset"
7261,"40.88657712","-110.83043635","Agriculture","Forest Service","WASATCH N.F. (UTAH)","Kamas","Utah",84036,"Building","Service","F1073.003441","Demolition","Excess Asset"
7262,"40.92400816","-110.73085133","Agriculture","Forest Service","WASATCH N.F. (UTAH)","Kamas","Utah",84036,"Building","Service","F1083.003441","Demolition","Excess Asset"
7263,"40.95462886","-110.1625138","Agriculture","Forest Service","WASATCH N.F. (UTAH)","Kamas","Utah",84036,"Building","All Other","F1263.003441","Demolition","Excess Asset"
7264,"40.954373","-110.16263587","Agriculture","Forest Service","WASATCH N.F. (UTAH)","Kamas","Utah",84036,"Building","All Other","F1264.003441","Demolition","Excess Asset"
7265,"40.88555969","-110.82983971","Agriculture","Forest Service","WASATCH N.F. (UTAH)","Kamas","Utah",84036,"Building","All Other","F8187010498","Demolition","Excess Asset"
7266,"40.88558199","-110.82986898","Agriculture","Forest Service","WASATCH N.F. (UTAH)","Kamas","Utah",84036,"Building","All Other","F8207010498","Demolition","Excess Asset"
7267,"40.88558625","-110.82970453","Agriculture","Forest Service","WASATCH N.F. (UTAH)","Kamas","Utah",84036,"Building","All Other","F8208010498","Demolition","Excess Asset"
7271,"41.94955543","-113.46240011","Agriculture","Forest Service","SAWTOOTH N.F. - UTAH","Park Valley","Utah",84329,"Building","All Other","F1035.003221","Demolition","Excess Asset"
7272,"41.94925818","-113.46186282","Agriculture","Forest Service","SAWTOOTH N.F. - UTAH","Park Valley","Utah",84329,"Building","Service","F1038.003221","Demolition","Excess Asset"
7275,"37.67411058","-109.82687451","Agriculture","Forest Service","MANTI-LASAL NATIONAL FOREST","Blanding","Utah",84511,"Building","Warehouses","F1195.003091","Demolition","Excess Asset"
7276,"38.5151548","-109.32975103","Agriculture","Forest Service","MANTI-LASAL NATIONAL FOREST","Moab","Utah",84532,"Building","Dormitories/Barracks","F1172.003091","Demolition","Excess Asset"
7277,"39.69606052","-111.30566294","Agriculture","Forest Service","MANTI-LASAL NATIONAL FOREST","Fairview","Utah",84629,"Building","All Other","F1164.003091","Demolition","Excess Asset"
7279,"40.0999064","-111.6261792","Agriculture","Forest Service","UINTA NATIONAL FOREST","SPANISH FORK","Utah",84660,"Building","All Other","F2154.003401","Demolition","Excess Asset"
7280,"40.09984909","-111.62642391","Agriculture","Forest Service","UINTA NATIONAL FOREST","SPANISH FORK","Utah",84660,"Building","All Other","F2155.003401","Demolition","Excess Asset"
7281,"40.58390393","-110.61689462","Agriculture","Forest Service","ASHLEY NATIONAL FOREST","HANNA","Utah",84066,"Building","Communications Systems","F3010.002691","Demolition","Excess Asset"
7282,"40.95477831","-109.46226262","Agriculture","Forest Service","ASHLEY NATIONAL FOREST","MANILA","Utah",84046,"Building","Communications Systems","F3022.002691","Demolition","Excess Asset"
7283,"40.88357573","-109.66925084","Agriculture","Forest Service","ASHLEY NATIONAL FOREST","MANILA","Utah",84046,"Building","Communications Systems","F3024.002691","Demolition","Excess Asset"
7284,"37.92601323","-112.60754976","Agriculture","Forest Service","DIXIE NATIONAL FOREST","PARAGONAH","Utah",84760,"Building","Service","F3176.002941","Demolition","Excess Asset"
7285,"40.45175697","-109.51999969","Agriculture","Forest Service","ASHLEY NATIONAL FOREST","VERNAL","Utah",84078,"Building","All Other","F8875010391","Demolition","Excess Asset"
7286,"40.98645619","-109.59286724","Agriculture","Forest Service","ASHLEY NATIONAL FOREST","MANILA","Utah",84046,"Building","All Other","F8883010391","Demolition","Excess Asset"
7287,"40.36764758","-111.73790831","Agriculture","Forest Service","UINTA NATIONAL FOREST","PLEASANT GROVE","Utah",84062,"Building","All Other","F9010010422","Demolition","Excess Asset"
7408,"37.62513","-79.51313","Agriculture","Forest Service","JEFFERSON NF","Natural BR STA","Virginia",24579,"Building","All Other","F844010319","Demolition","Excess Asset"
7468,"38.39","-78.97","Agriculture","Forest Service","GEORGE WASHINGTON NF","BRIDGEWATER","Virginia",22812,"Building","All Other","F1022010319","Demolition","Excess Asset"
7469,"37.26","-80.86","Agriculture","Forest Service","JEFFERSON NF","NARROWS","Virginia",24315,"Building","Service","F1176.006951","Demolition","Excess Asset"
7470,"38.18842","-79.24529","Agriculture","Forest Service","GEORGE WASHINGTON NF","CHURCHVILLE","Virginia",24479,"Building","All Other","F3707.006374","Demolition","Excess Asset"
7471,"38.18842","-79.24529","Agriculture","Forest Service","GEORGE WASHINGTON NF","CHURCHVILLE","Virginia",24479,"Building","Industrial","F3709.006374","Demolition","Excess Asset"
7472,"38.31","-79.36","Agriculture","Forest Service","GEORGE WASHINGTON NF","DEERFIELD","Virginia",24485,"Building","All Other","F6458010319","Demolition","Excess Asset"
7473,"38.31","-79.36","Agriculture","Forest Service","JEFFERSON NF","DEERFIELD","Virginia",24485,"Building","Service","F6459010319","Demolition","Excess Asset"
7474,"37.09939","-81.12682","Agriculture","Forest Service","JEFFERSON NF","BLAND","Virginia",24315,"Building","Family Housing","F7301.006371","Demolition","Excess Asset"
7772,"48.88731119","-121.93902447","Agriculture","Forest Service","MT.BAKER-SNOQUALMIE NF","GLACIER","Washington",98244,"Building","All Other","F1060.004841","Demolition","Excess Asset"
7773,"47.75305556","-122.92888889","Agriculture","Forest Service","OLYMPIC NATIONAL FOREST","BRINNON","Washington",98320,"Building","Communications Systems","F1295.005071","Demolition","Excess Asset"
7774,"48.26055556","-121.60222222","Agriculture","Forest Service","MT.BAKER-SNOQUALMIE NF","DARRINGTON","Washington",98241,"Building","All Other","F14625010357","Demolition","Excess Asset"
7775,"45.88611111","-122.08666666","Agriculture","Forest Service","GIFFORD PINCHOT NF","STEVENSON","Washington",98648,"Building","Communications Systems","F15332010274","Demolition","Excess Asset"
7776,"46.47525","-117.6099","Agriculture","Forest Service","UMATILLA N.F. - WASHINGTON","POMEROY","Washington",99347,"Building","All Other","F1670.009091","Demolition","Excess Asset"
7777,"46.62618334","-121.66816667","Agriculture","Forest Service","GIFFORD PINCHOT NF","PACKWOOD","Washington",98361,"Building","Industrial","F2307.004731","Demolition","Excess Asset"
7778,"46.030885","-117.90699","Agriculture","Forest Service","UMATILLA N.F. - WASHINGTON","DAYTON","Washington",99328,"Building","Service","F23951010616","Demolition","Excess Asset"
7779,"46.05878","-118.36355","Agriculture","Forest Service","UMATILLA N.F. - WASHINGTON","WALLA WALLA","Washington",99362,"Building","All Other","F23959010616","Demolition","Excess Asset"
7780,"46.43926666","-121.8478","Agriculture","Forest Service","GIFFORD PINCHOT NF","RANDLE","Washington",98377,"Building","All Other","F2638.004731","Demolition","Excess Asset"
7781,"47.03166667","-122.9416667","Agriculture","Forest Service","OLYMPIC NATIONAL FOREST","TUMWATER","Washington",98512,"Building","All Other","F273986010602","Demolition","Excess Asset"
7782,"47.03166667","-122.9416667","Agriculture","Forest Service","OLYMPIC NATIONAL FOREST","TUMWATER","Washington",98512,"Building","All Other","F273987010602","Demolition","Excess Asset"
7783,"47.03166667","-122.9416667","Agriculture","Forest Service","OLYMPIC NATIONAL FOREST","TUMWATER","Washington",98512,"Building","All Other","F273989010602","Demolition","Excess Asset"
7784,"47.03166667","-122.9416667","Agriculture","Forest Service","OLYMPIC NATIONAL FOREST","TUMWATER","Washington",98512,"Building","All Other","F273990010602","Demolition","Excess Asset"
7785,"47.03166667","-122.9416667","Agriculture","Forest Service","OLYMPIC NATIONAL FOREST","TUMWATER","Washington",98512,"Building","All Other","F273992010602","Demolition","Excess Asset"
7786,"47.03166667","-122.9416667","Agriculture","Forest Service","OLYMPIC NATIONAL FOREST","TUMWATER","Washington",98512,"Building","All Other","F273993010602","Demolition","Excess Asset"
7787,"47.03166667","-122.9416667","Agriculture","Forest Service","OLYMPIC NATIONAL FOREST","TUMWATER","Washington",98512,"Building","All Other","F273995010602","Demolition","Excess Asset"
7788,"47.03166667","-122.9416667","Agriculture","Forest Service","OLYMPIC NATIONAL FOREST","TUMWATER","Washington",98512,"Building","All Other","F273996010602","Demolition","Excess Asset"
7789,"47.03166667","-122.9416667","Agriculture","Forest Service","OLYMPIC NATIONAL FOREST","TUMWATER","Washington",98512,"Building","All Other","F273997010602","Demolition","Excess Asset"
7790,"47.03166667","-122.9416667","Agriculture","Forest Service","OLYMPIC NATIONAL FOREST","TUMWATER","Washington",98512,"Building","All Other","F273998010602","Demolition","Excess Asset"
7871,"46.98888889","-121.53555555","Agriculture","Forest Service","MT.BAKER-SNOQUALMIE NF","Enumclaw","Washington",98022,"Building","All Other","F14660010357","Demolition","Excess Asset"
7880,"47.389761","-123.312828","Agriculture","Forest Service","OLYMPIC NATIONAL FOREST","Montesano","Washington",98563,"Building","All Other","F1080.005071","Demolition","Excess Asset"
7881,"47.36813","-123.56446","Agriculture","Forest Service","OLYMPIC NATIONAL FOREST","Montesano","Washington",98563,"Building","All Other","F1090.005071","Demolition","Excess Asset"
7900,"46.06271944","-122.02784167","Agriculture","Forest Service","GIFFORD PINCHOT NF","Stevenson","Washington",98648,"Building","All Other","F1695.004731","Demolition","Excess Asset"
7907,"47.8375","-120.7983","Agriculture","Forest Service","WENATCHEE NF","Leavenworth","Washington",98826,"Building","All Other","F48216010700","Demolition","Excess Asset"
7931,"46.9017","-121.0164","Agriculture","Forest Service","WENATCHEE NF","Naches","Washington",98937,"Building","Service","F2055.005511","Demolition","Excess Asset"
7932,"46.9017","-121.0164","Agriculture","Forest Service","WENATCHEE NF","Naches","Washington",98937,"Building","Industrial","F9330010416","Demolition","Excess Asset"
8563,"38.31799909","-80.09105591","Agriculture","Forest Service","MONONGAHELA NATIONAL FOREST","Slaty Fork","West Virginia",26291,"Building","All Other","F1552.007891","Demolition","Excess Asset"
8564,"38.31800029","-80.09121089","Agriculture","Forest Service","MONONGAHELA NATIONAL FOREST","Slaty Fork","West Virginia",26291,"Building","All Other","F1558.007891","Demolition","Excess Asset"
8612,"37.939844","-80.101642","Agriculture","Forest Service","MONONGAHELA NATIONAL FOREST","ANTHONY","West Virginia",24986,"Building","All Other","F1125.007891","Demolition","Excess Asset"
8613,"38.1442728","-80.34451548","Agriculture","Forest Service","MONONGAHELA NATIONAL FOREST","HILLSBORO","West Virginia",24946,"Building","Communications Systems","F1498.007891","Demolition","Excess Asset"
8614,"37.43","-81.06958","Agriculture","Forest Service","MORGANTOWN BLDGS","ATHENS","West Virginia",24740,"Building","All Other","F1768.008341","Demolition","Excess Asset"
8615,"38.92906777","-79.86449509","Agriculture","Forest Service","MONONGAHELA NATIONAL FOREST","ELKINS","West Virginia",26241,"Building","All Other","F2023.007891","Demolition","Excess Asset"
8616,"38.24640897","-80.52576555","Agriculture","Forest Service","MONONGAHELA NATIONAL FOREST","RICHWOOD","West Virginia",26261,"Building","All Other","F2144.007891","Demolition","Excess Asset"
8617,"37.429","-81.0701","Agriculture","Forest Service","MORGANTOWN BLDGS","ATHENS","West Virginia",24740,"Building","Industrial","F78010283","Demolition","Excess Asset"
8812,"41.20575313","-106.79719179","Agriculture","Forest Service","MEDICINE BOW NATIONAL FOREST","Encampment","Wyoming",82325,"Building","Other Institutional Uses","F15216010454","Demolition","Excess Asset"
8817,"44.84470776","-109.63030182","Agriculture","Forest Service","SHOSHONE NATIONAL FOREST","Cody","Wyoming",82414,"Building","All Other","F2016.001771","Demolition","Excess Asset"
8818,"44.84470902","-109.63033995","Agriculture","Forest Service","SHOSHONE NATIONAL FOREST","Cody","Wyoming",82414,"Building","All Other","F2018.001771","Demolition","Excess Asset"
8819,"44.84471532","-109.63043544","Agriculture","Forest Service","SHOSHONE NATIONAL FOREST","Cody","Wyoming",82414,"Building","All Other","F2152.001771","Demolition","Excess Asset"
8820,"44.15408716","-109.60423501","Agriculture","Forest Service","SHOSHONE NATIONAL FOREST","Cody","Wyoming",82414,"Building","All Other","F2170.001771","Demolition","Excess Asset"
8821,"44.84656554","-109.63498787","Agriculture","Forest Service","SHOSHONE NATIONAL FOREST","Cody","Wyoming",82414,"Building","All Other","F5539010337","Demolition","Excess Asset"
8824,"44.18932547","-107.25035366","Agriculture","Forest Service","BIGHORN NATIONAL FOREST","Manderson","Wyoming",82432,"Building","All Other","F14070010452","Demolition","Excess Asset"
8825,"44.18981477","-107.25045328","Agriculture","Forest Service","BIGHORN NATIONAL FOREST","Manderson","Wyoming",82432,"Building","All Other","F14072010452","Demolition","Excess Asset"
8826,"44.1891644","-107.2510254","Agriculture","Forest Service","BIGHORN NATIONAL FOREST","Manderson","Wyoming",82432,"Building","All Other","F14073010452","Demolition","Excess Asset"
8827,"44.18959402","-107.25075341","Agriculture","Forest Service","BIGHORN NATIONAL FOREST","Manderson","Wyoming",82432,"Building","All Other","F14075010452","Demolition","Excess Asset"
8828,"44.18839567","-107.24805816","Agriculture","Forest Service","BIGHORN NATIONAL FOREST","Manderson","Wyoming",82432,"Building","All Other","F16568010452","Demolition","Excess Asset"
8829,"44.18982682","-107.2503871","Agriculture","Forest Service","BIGHORN NATIONAL FOREST","Manderson","Wyoming",82432,"Building","All Other","F4503.001041","Demolition","Excess Asset"
8831,"43.86627457","-109.31555687","Agriculture","Forest Service","SHOSHONE NATIONAL FOREST","Meeteetse","Wyoming",82433,"Building","Service","F2057.001771","Demolition","Excess Asset"
8832,"44.0282937","-109.43023399","Agriculture","Forest Service","SHOSHONE NATIONAL FOREST","Meeteetse","Wyoming",82433,"Building","Service","F2138.001771","Demolition","Excess Asset"
8833,"43.87794857","-109.29482461","Agriculture","Forest Service","SHOSHONE NATIONAL FOREST","Meeteetse","Wyoming",82433,"Building","Service","F5497010337","Demolition","Excess Asset"
8835,"43.04561","-109.53991","Agriculture","Forest Service","BRIDGER NATIONAL FOREST","Dubois","Wyoming",82513,"Building","Service","F4578010491","Demolition","Excess Asset"
8848,"42.59262993","-108.85553899","Agriculture","Forest Service","SHOSHONE NATIONAL FOREST","Lander","Wyoming",82520,"Building","All Other","F1976.001771","Demolition","Excess Asset"
8850,"42.41577518","-105.36035535","Agriculture","Forest Service","MEDICINE BOW NATIONAL FOREST","Douglas","Wyoming",82633,"Building","All Other","F1086.001291","Demolition","Excess Asset"
8854,"44.31916918","-106.94760594","Agriculture","Forest Service","BIGHORN NATIONAL FOREST","Buffalo","Wyoming",82834,"Building","All Other","F19029010452","Demolition","Excess Asset"
8855,"44.31948489","-106.94700618","Agriculture","Forest Service","BIGHORN NATIONAL FOREST","Buffalo","Wyoming",82834,"Building","All Other","F4317.001041","Demolition","Excess Asset"
8857,"44.78968582","-107.53069569","Agriculture","Forest Service","BIGHORN NATIONAL FOREST","Dayton","Wyoming",82836,"Building","Service","F5804010452","Demolition","Excess Asset"
8858,"44.78994346","-107.53099963","Agriculture","Forest Service","BIGHORN NATIONAL FOREST","Dayton","Wyoming",82836,"Building","All Other","F5805010452","Demolition","Excess Asset"
8863,"42.52156","-109.5181","Agriculture","Forest Service","BRIDGER NATIONAL FOREST","Boulder","Wyoming",82923,"Building","Service","F1243.002791","Demolition","Excess Asset"
8864,"42.36736","-109.1483","Agriculture","Forest Service","BRIDGER NATIONAL FOREST","Boulder","Wyoming",82923,"Building","Service","F1800.002791","Demolition","Excess Asset"
8867,"43.2500637","-110.02295847","Agriculture","Forest Service","BRIDGER NATIONAL FOREST","Cora","Wyoming",82925,"Building","Service","F1223.002791","Demolition","Excess Asset"
8868,"43.14987","-110.01376","Agriculture","Forest Service","BRIDGER NATIONAL FOREST","Cora","Wyoming",82925,"Building","Service","F1224.002791","Demolition","Excess Asset"
8869,"43.31510659","-109.85802348","Agriculture","Forest Service","BRIDGER NATIONAL FOREST","Cora","Wyoming",82925,"Building","All Other","F7838010491","Demolition","Excess Asset"
8870,"43.2700482","-110.64674144","Agriculture","Forest Service","TETON NATIONAL FOREST","Jackson","Wyoming",83001,"Building","All Other","F1164.002791","Demolition","Excess Asset"
8872,"43.67207822","-109.64192523","Agriculture","Forest Service","SHOSHONE NATIONAL FOREST","DUBOIS","Wyoming",82513,"Building","Service","F1000.001771","Demolition","Excess Asset"
8873,"43.81095216","-109.55749671","Agriculture","Forest Service","SHOSHONE NATIONAL FOREST","DUBOIS","Wyoming",82513,"Building","Service","F1001.001771","Demolition","Excess Asset"
8874,"41.29668723","-106.14020343","Agriculture","Forest Service","MEDICINE BOW NATIONAL FOREST","CENTENNIAL","Wyoming",82055,"Building","Industrial","F1063.001291","Demolition","Excess Asset"
8875,"41.22807827","-105.43665442","Agriculture","Forest Service","MEDICINE BOW NATIONAL FOREST","TIE SIDING","Wyoming",82070,"Building","All Other","F1070.001291","Demolition","Excess Asset"
8876,"41.22806978","-105.43682325","Agriculture","Forest Service","MEDICINE BOW NATIONAL FOREST","TIE SIDING","Wyoming",82070,"Building","All Other","F1071.001291","Demolition","Excess Asset"
8877,"41.22806165","-105.4368916","Agriculture","Forest Service","MEDICINE BOW NATIONAL FOREST","TIE SIDING","Wyoming",82070,"Building","Service","F1072.001291","Demolition","Excess Asset"
8878,"41.30768415","-106.156136","Agriculture","Forest Service","MEDICINE BOW NATIONAL FOREST","CENTENNIAL","Wyoming",82055,"Building","Industrial","F1108.001291","Demolition","Excess Asset"
8879,"42.91267852","-110.71301507","Agriculture","Forest Service","BRIDGER NATIONAL FOREST","BEDFORD","Wyoming",83122,"Building","Service","F1138.002791","Demolition","Excess Asset"
8880,"42.67754798","-110.66763353","Agriculture","Forest Service","BRIDGER NATIONAL FOREST","SMOOT","Wyoming",83122,"Building","Service","F1144.002791","Demolition","Excess Asset"
8881,"43.8323059","-110.3469188","Agriculture","Forest Service","TETON NATIONAL FOREST","MORAN","Wyoming",83013,"Building","Industrial","F1187.002791","Demolition","Excess Asset"
8882,"43.83308379","-110.34672279","Agriculture","Forest Service","TETON NATIONAL FOREST","MORAN","Wyoming",83013,"Building","Service","F1188.002791","Demolition","Excess Asset"
8883,"43.18761","-109.51495","Agriculture","Forest Service","BRIDGER NATIONAL FOREST","BURRIS","Wyoming",82513,"Building","Service","F1234.002791","Demolition","Excess Asset"
8884,"43.48374528","-110.76185003","Agriculture","Forest Service","TETON NATIONAL FOREST","JACKSON","Wyoming",83001,"Building","Office","F1246.002791","Demolition","Excess Asset"
8885,"43.4836933","-110.76086301","Agriculture","Forest Service","TETON NATIONAL FOREST","JACKSON","Wyoming",83001,"Building","Office","F1248.002791","Demolition","Excess Asset"
8886,"43.48340777","-110.76107025","Agriculture","Forest Service","TETON NATIONAL FOREST","JACKSON","Wyoming",83001,"Building","Industrial","F1259.002791","Demolition","Excess Asset"
8887,"43.48472844","-110.76028966","Agriculture","Forest Service","TETON NATIONAL FOREST","JACKSON","Wyoming",83001,"Building","All Other","F1266.002791","Demolition","Excess Asset"
8888,"43.48468499","-110.76000511","Agriculture","Forest Service","TETON NATIONAL FOREST","JACKSON","Wyoming",83001,"Building","All Other","F1268.002791","Demolition","Excess Asset"
8889,"43.48404769","-110.75943831","Agriculture","Forest Service","TETON NATIONAL FOREST","JACKSON","Wyoming",83001,"Building","All Other","F1270.002791","Demolition","Excess Asset"
8890,"43.48351975","-110.75991157","Agriculture","Forest Service","TETON NATIONAL FOREST","JACKSON","Wyoming",83001,"Building","All Other","F1271.002791","Demolition","Excess Asset"
8891,"43.48342622","-110.75961743","Agriculture","Forest Service","TETON NATIONAL FOREST","JACKSON","Wyoming",83001,"Building","All Other","F1274.002791","Demolition","Excess Asset"
8892,"43.4835041","-110.75926378","Agriculture","Forest Service","TETON NATIONAL FOREST","JACKSON","Wyoming",83001,"Building","All Other","F1275.002791","Demolition","Excess Asset"
8893,"44.04439598","-109.18080665","Agriculture","Forest Service","SHOSHONE NATIONAL FOREST","MEETEETSE","Wyoming",82433,"Building","Service","F2056.001771","Demolition","Excess Asset"
8894,"44.04505684","-109.18106313","Agriculture","Forest Service","SHOSHONE NATIONAL FOREST","MEETEETSE","Wyoming",82433,"Building","All Other","F2063.001771","Demolition","Excess Asset"
8895,"43.74187547","-109.88682576","Agriculture","Forest Service","SHOSHONE NATIONAL FOREST","DUBOIS","Wyoming",82513,"Building","Service","F2100.001771","Demolition","Excess Asset"
8896,"44.15076937","-108.87184167","Agriculture","Forest Service","SHOSHONE NATIONAL FOREST","MEETEETSE","Wyoming",82433,"Building","Family Housing","F2101.001771","Demolition","Excess Asset"
8897,"43.74185525","-109.88666854","Agriculture","Forest Service","SHOSHONE NATIONAL FOREST","DUBOIS","Wyoming",82513,"Building","All Other","F2211.001771","Demolition","Excess Asset"
8898,"43.68536911","-109.36802222","Agriculture","Forest Service","SHOSHONE NATIONAL FOREST","DUBOIS","Wyoming",82513,"Building","Service","F2217.001771","Demolition","Excess Asset"
8899,"43.56674628","-109.8455731","Agriculture","Forest Service","SHOSHONE NATIONAL FOREST","DUBOIS","Wyoming",82513,"Building","Service","F2232.001771","Demolition","Excess Asset"
8900,"43.81088324","-109.55748842","Agriculture","Forest Service","SHOSHONE NATIONAL FOREST","DUBOIS","Wyoming",82513,"Building","All Other","F2242.001771","Demolition","Excess Asset"
8901,"44.1586182","-107.22435301","Agriculture","Forest Service","BIGHORN NATIONAL FOREST","TEN SLEEP","Wyoming",82442,"Building","Communications Systems","F2338.001041","Demolition","Excess Asset"
8902,"44.82800681","-107.84469567","Agriculture","Forest Service","BIGHORN NATIONAL FOREST","SHELL","Wyoming",82431,"Building","All Other","F2349.001041","Demolition","Excess Asset"
8903,"44.54756048","-107.50225643","Agriculture","Forest Service","BIGHORN NATIONAL FOREST","SHELL","Wyoming",82432,"Building","All Other","F2360.001041","Demolition","Excess Asset"
8904,"44.60256176","-107.21582924","Agriculture","Forest Service","BIGHORN NATIONAL FOREST","WOLF","Wyoming",82842,"Building","Dormitories/Barracks","F4508.001041","Demolition","Excess Asset"
8905,"43.8237936","-110.35188824","Agriculture","Forest Service","TETON NATIONAL FOREST","MORAN","Wyoming",83013,"Building","All Other","F4586010491","Demolition","Excess Asset"
8906,"43.83157416","-110.34768702","Agriculture","Forest Service","TETON NATIONAL FOREST","MORAN","Wyoming",83013,"Building","All Other","F4589010491","Demolition","Excess Asset"
8907,"43.82608719","-110.34676952","Agriculture","Forest Service","TETON NATIONAL FOREST","MORAN","Wyoming",83013,"Building","All Other","F4592010491","Demolition","Excess Asset"
8908,"43.82738868","-110.36210626","Agriculture","Forest Service","TETON NATIONAL FOREST","MORAN","Wyoming",83013,"Building","Service","F4597010491","Demolition","Excess Asset"
8909,"44.46385193","-109.61238927","Agriculture","Forest Service","SHOSHONE NATIONAL FOREST","WAPITI","Wyoming",82414,"Building","All Other","F5537010337","Demolition","Excess Asset"
8910,"42.85382857","-109.05922522","Agriculture","Forest Service","SHOSHONE NATIONAL FOREST","FORT WASHAKIE","Wyoming",82520,"Building","All Other","F5640010337","Demolition","Excess Asset"
8911,"44.60243238","-107.21620481","Agriculture","Forest Service","BIGHORN NATIONAL FOREST","WOLF","Wyoming",82842,"Building","Service","F5808010452","Demolition","Excess Asset"
8912,"43.48357755","-110.7601862","Agriculture","Forest Service","TETON NATIONAL FOREST","JACKSON","Wyoming",83001,"Building","Industrial","F5945010491","Demolition","Excess Asset"
8913,"43.27156","-109.57213","Agriculture","Forest Service","BRIDGER NATIONAL FOREST","DUBOIS","Wyoming",82513,"Building","Dormitories/Barracks","F7835010491","Demolition","Excess Asset"
